{"type": "Feature", "properties": {"slug": "albufera-valencia", "name": "L'Albufera de València", "natura_codes": ["ES0000023"], "natura_names": ["L'Albufera"], "sea_clipped": false}, "geometry": {"type": "Polygon", "coordinates": [[[-0.29170502100393514, 39.18066041242806], [-0.29712105368342145, 39.184804276133114], [-0.2961468442325237, 39.1873987648895], [-0.29345122823696373, 39.19155685075317], [-0.2908165916795399, 39.19553160224088], [-0.2879784813203268, 39.19938893483035], [-0.28473281160494585, 39.203015964387944], [-0.281298239660027, 39.20558443687072], [-0.2774177062788545, 39.20854326987749], [-0.2742597615425252, 39.21212248388664], [-0.2785440229652452, 39.21563710584794], [-0.2820137046647209, 39.21478124721586], [-0.28557095773134467, 39.21591379662433], [-0.2897964558597347, 39.217440175732634], [-0.29417602943239146, 39.21846548686893], [-0.296175960427513, 39.21592188538198], [-0.3037316543496384, 39.21811969199715], [-0.30666150425889827, 39.21602537922052], [-0.30892069173996933, 39.21579385782003], [-0.3128697548992486, 39.218299511695335], [-0.31620994445049305, 39.22034054555846], [-0.32051962190752453, 39.22221011690992], [-0.3226680273511436, 39.22360190238008], [-0.32557019477661503, 39.22138935425616], [-0.3323194818479555, 39.22271092802721], [-0.3344730184684618, 39.22167918935217], [-0.3382049489421188, 39.22509794795857], [-0.3426658541839513, 39.21816834758172], [-0.347469735302961, 39.218232888507345], [-0.34763903269974405, 39.21654305004726], [-0.3540478906177454, 39.21708082030333], [-0.35555374640997367, 39.21188529857654], [-0.3579538085922311, 39.21202088235647], [-0.36160834740751485, 39.21255873596977], [-0.3628502646945216, 39.21391571549298], [-0.36214749378314526, 39.21607998066554], [-0.36061772214309146, 39.21871648213774], [-0.36297942805934846, 39.21736910933796], [-0.36526964245203525, 39.21700205396316], [-0.3649601009714282, 39.21823379117239], [-0.36420544336923627, 39.21986986250419], [-0.3633525873300667, 39.22231001747365], [-0.3671499744451598, 39.22316625824597], [-0.3702953023433219, 39.22237249744412], [-0.3714068767775797, 39.220325522934004], [-0.37216056060601804, 39.22092362843469], [-0.3718768968937974, 39.22245326897336], [-0.3696498996426164, 39.22465072080599], [-0.3696334811341663, 39.22588459171403], [-0.37699149628644507, 39.22784796188353], [-0.37894068414612275, 39.22443689750663], [-0.3816774654395735, 39.22133181035982], [-0.3830520001136801, 39.219308654428204], [-0.38402386226672897, 39.21890707441982], [-0.3864914085880716, 39.21842196420943], [-0.3887094792802953, 39.21906184536143], [-0.3874540225853023, 39.223186858018686], [-0.3864285193316732, 39.22546114681935], [-0.38734722367778024, 39.22686466644345], [-0.38956427208720695, 39.22761712106554], [-0.3932858584603199, 39.22762395590756], [-0.39601188512321994, 39.22753632903545], [-0.39523778258835646, 39.23073074019431], [-0.3959183687055143, 39.23247120545114], [-0.39418189382027286, 39.235315239190506], [-0.39204495087968394, 39.237375494418416], [-0.38982257007075355, 39.23927613389487], [-0.3934489107692482, 39.23985740844714], [-0.3967609857470671, 39.23981442156036], [-0.3981736035993232, 39.23934600715484], [-0.40124812269350896, 39.239558843675944], [-0.40319875234922814, 39.240579865982625], [-0.4016068092066901, 39.24129659087397], [-0.39858210618657686, 39.24175154795894], [-0.39745291129801924, 39.242974056269595], [-0.3974873311464385, 39.24480366337152], [-0.3991521707776741, 39.24523277278204], [-0.3982593756409851, 39.24855967998191], [-0.3971264123198037, 39.25005687485497], [-0.3938319883389859, 39.25092008893874], [-0.391735061751067, 39.24989563246399], [-0.3895534060655161, 39.25088275742851], [-0.3890608849480681, 39.25266000325927], [-0.38938937279632413, 39.254424134326946], [-0.39085326648500285, 39.25457408083683], [-0.3931060929955602, 39.254912853467964], [-0.39524198939883054, 39.25516338032017], [-0.3937317085055336, 39.25638182496263], [-0.3924826738664903, 39.25774123822387], [-0.39213990819510064, 39.259269596939454], [-0.39224890168683163, 39.2621504247471], [-0.3921967652643898, 39.2638879968023], [-0.39310670384995317, 39.26380478025756], [-0.396459423102813, 39.26298793933184], [-0.39849558315334144, 39.26421815925049], [-0.4015664487992987, 39.264813792282084], [-0.3979808458006097, 39.26773368506931], [-0.3937721138286799, 39.27121608886476], [-0.39281444415880706, 39.272739684293086], [-0.38874737201559334, 39.27206291332764], [-0.38587085598307297, 39.270092929026795], [-0.3848957536067937, 39.27067912990264], [-0.3829932215479996, 39.27043365945207], [-0.3828084497721826, 39.266641213278064], [-0.3773681338339245, 39.267915136469334], [-0.37719848609420675, 39.269627530666384], [-0.3755543104094707, 39.269797671891006], [-0.37495650314744605, 39.26846436862809], [-0.37095738047064747, 39.27154075901788], [-0.36901963894431883, 39.27392039014054], [-0.3668373283869507, 39.27922684158289], [-0.36886350366310766, 39.279038436663086], [-0.3687744896016211, 39.28127962799198], [-0.3706236868853117, 39.28113673859598], [-0.3695333252681799, 39.28372916969997], [-0.3710373574804004, 39.28529916007515], [-0.37086843737606495, 39.2869664846887], [-0.3746193851842415, 39.28718178117895], [-0.37654125347952494, 39.286008924091206], [-0.3779072703280868, 39.289107208946085], [-0.38422080441805573, 39.28624032433687], [-0.3875860893051148, 39.289032058182514], [-0.40591053263002635, 39.33476489555548], [-0.405362968141829, 39.34074831777996], [-0.40463951082609245, 39.35130446762932], [-0.403497522131273, 39.3624008047862], [-0.4036693527771375, 39.369490336603945], [-0.40379338137178866, 39.371272410748105], [-0.3999123161879344, 39.38065428580603], [-0.39690245782788985, 39.3862266192541], [-0.3878033288902584, 39.39913011606849], [-0.3849465461495778, 39.40191259859214], [-0.3846199420684685, 39.40218451673869], [-0.38282477036424906, 39.40461696997137], [-0.3808433257993627, 39.407774892080774], [-0.379251838102653, 39.41034250029761], [-0.3753589573778759, 39.4093042480897], [-0.3718195924635205, 39.4081522448535], [-0.36837965847466014, 39.40837168952232], [-0.36794098057870595, 39.410402199450985], [-0.36698798035167907, 39.41350208418701], [-0.3641248393354093, 39.41662621662791], [-0.36070005094224544, 39.41785473214588], [-0.3575030214062365, 39.41958379405511], [-0.35424691147062226, 39.42131592611769], [-0.352350829315588, 39.42246187169858], [-0.35139187954641793, 39.423800310561255], [-0.35076042588544165, 39.42484889989237], [-0.3500324635185614, 39.42650784932134], [-0.34834147392941905, 39.42765830651104], [-0.34775494411745583, 39.42754128997479], [-0.34380546324159295, 39.42633830986993], [-0.34096645905870143, 39.42548948715761], [-0.3373376560779959, 39.424469315648906], [-0.3357903484253028, 39.42377164743526], [-0.3341521968428354, 39.423229516181834], [-0.3336815712621409, 39.42327274505422], [-0.33345164656685067, 39.42292513547553], [-0.33342133381589417, 39.422996505464184], [-0.333225374421492, 39.42018136341854], [-0.33296674046806446, 39.41773412444835], [-0.33189393013495605, 39.4146150427145], [-0.33068345927274256, 39.41090273196613], [-0.3307407286687327, 39.408890660700905], [-0.3296572337736472, 39.40453716157249], [-0.32824841669334376, 39.402356205672035], [-0.32705193349843475, 39.39768028663723], [-0.3252060258452816, 39.39112914546624], [-0.324780104924675, 39.38761954666289], [-0.29028771035264195, 39.398341025556796], [-0.18912847651358006, 39.20039516866699], [-0.2235030202052012, 39.1897160795173], [-0.22332735195643633, 39.18875695599521], [-0.22277664066980657, 39.18841049055852], [-0.2238587979734473, 39.18849035911467], [-0.22814738568255524, 39.18951597315084], [-0.23227073817662144, 39.18992490020453], [-0.23690007483930184, 39.18780070052958], [-0.23893249610164413, 39.187042639631045], [-0.24233448615120504, 39.18669084340714], [-0.2460582931597096, 39.186360060537055], [-0.24991619708056684, 39.1868566370533], [-0.2524748451481172, 39.186106237609316], [-0.2532938877016749, 39.18617961387132], [-0.2535287270798853, 39.188081522583126], [-0.2551320788265276, 39.18860130434046], [-0.25875314371936897, 39.18728572477639], [-0.26367544794567505, 39.18713123124502], [-0.2677328407416636, 39.18799226375407], [-0.2694535663633592, 39.1864560648982], [-0.27342353331929625, 39.18535090111974], [-0.2790975989792853, 39.183785431056705], [-0.28093058885864375, 39.1826120357172], [-0.2868983039035889, 39.183012484946424], [-0.29170502100393514, 39.18066041242806]], [[-0.24386812414023293, 39.225505647017826], [-0.24401332602610426, 39.22569826956672], [-0.22864636928018905, 39.231833108872344], [-0.2719620758616457, 39.31637693046624], [-0.2917784600750461, 39.308516270025095], [-0.29169535962305204, 39.308509828830466], [-0.2915158636528883, 39.3084470891868], [-0.2916099073816569, 39.30828261977704], [-0.29173532387342355, 39.308263020183965], [-0.29192339066972744, 39.308253887653045], [-0.2919827684117054, 39.30825527084337], [-0.2919674692041053, 39.30808825284824], [-0.2917719841201706, 39.30798910768505], [-0.2916240297962258, 39.30784151917314], [-0.291612613107281, 39.307724140434935], [-0.29157492428955745, 39.30748002661603], [-0.2915474942323534, 39.307420830951024], [-0.29151050520220195, 39.30738393407393], [-0.29139577596737026, 39.30729567773261], [-0.2911791481349501, 39.307105950515016], [-0.29103119560763285, 39.30695836292087], [-0.29096767483557484, 39.306857787758545], [-0.2909026484871149, 39.3067211402915], [-0.2908008630772272, 39.30646652366642], [-0.29073609634186165, 39.30626682243694], [-0.2906062466641858, 39.30589443657551], [-0.2905486951971736, 39.30578949538293], [-0.29040815916085966, 39.30552496675258], [-0.2902603845000012, 39.30526026890814], [-0.2900583327313508, 39.304899713224984], [-0.2900374504942568, 39.304858686794795], [-0.2899049121589348, 39.30461236088293], [-0.289846029388691, 39.30446684848892], [-0.2897624995419843, 39.30430274369423], [-0.28969883773441524, 39.30422468560539], [-0.2895632038046289, 39.30407738318715], [-0.2893626360528168, 39.30384748841928], [-0.28931415218030637, 39.303751766251835], [-0.28924745227045384, 39.30358354955439], [-0.2891572039237554, 39.30340577526681], [-0.28897503097404126, 39.30301865566017], [-0.28894297099986355, 39.30289178456514], [-0.28885475284570533, 39.30262397024229], [-0.28875011438646936, 39.30238730292709], [-0.2886388436654629, 39.302191019833394], [-0.28852751545230887, 39.30195869980675], [-0.28845916803224636, 39.30177693201355], [-0.28836124986962974, 39.301553933791375], [-0.2882581196817538, 39.301353335023066], [-0.28814887915332094, 39.301179621644756], [-0.2880192792072714, 39.30095138083651], [-0.28788310628829306, 39.300686950010025], [-0.2877433445997773, 39.3004404530083], [-0.28759871583902064, 39.30020735764009], [-0.2874441535078604, 39.299987541692424], [-0.2873670618868179, 39.29988214118382], [-0.28707728783404035, 39.299542056589885], [-0.2870399286980182, 39.2994961414526], [-0.28696280922919903, 39.29937272377796], [-0.28693660447403585, 39.29928202497106], [-0.28684185287282116, 39.29899603850087], [-0.28677391598279867, 39.29884130420387], [-0.2867214992859957, 39.298772515607354], [-0.2866003902160113, 39.29864356591681], [-0.28644534189628806, 39.29845526884128], [-0.28644360635116245, 39.29838766304221], [-0.2864223845508989, 39.298243028220455], [-0.28638601356165044, 39.29813407415173], [-0.28633174633536007, 39.2980382162594], [-0.28618295657821474, 39.29780051570448], [-0.28600802135471465, 39.297508152578054], [-0.2858728734134913, 39.29731130939206], [-0.28581548094829884, 39.29718384747687], [-0.2858023080529952, 39.29709345379943], [-0.2857514068140288, 39.29683551532157], [-0.28571726723997054, 39.29676264888675], [-0.2856363586772943, 39.29664364568935], [-0.2855090593166779, 39.29648752555081], [-0.28529451198243533, 39.29620775031184], [-0.28508905649718275, 39.2959552123034], [-0.2848725149029837, 39.29567088488297], [-0.2848234920413149, 39.295570643880296], [-0.2848096813421387, 39.29553428579058], [-0.2844883800161289, 39.29503580633606], [-0.2844608125167023, 39.29499912748042], [-0.28432567355861654, 39.29480228349678], [-0.2841337044807213, 39.29436988467652], [-0.2840725229216718, 39.29424683754906], [-0.2839963403956919, 39.29413695332612], [-0.283823914166785, 39.29381761937811], [-0.283726222379637, 39.293608135828585], [-0.28361932196250966, 39.29341195117213], [-0.2827326910653034, 39.29186875759057], [-0.28265182023183855, 39.29176777211038], [-0.28264087964998863, 39.291713463867396], [-0.2826120410344358, 39.29167225103333], [-0.28250120509802445, 39.29150299860534], [-0.2824627814584086, 39.29146606552793], [-0.28241634035483104, 39.29139291054305], [-0.2823644015617506, 39.2912745830292], [-0.2821464460192868, 39.290877608009765], [-0.2820654682863341, 39.29070454997692], [-0.28200432086324084, 39.29059951926815], [-0.2819562583006025, 39.29053083172742], [-0.2819085712337509, 39.29047116008442], [-0.28185798979505133, 39.29041142025622], [-0.28179796796102125, 39.2903334433168], [-0.28172399169737933, 39.29024162665769], [-0.281646918042612, 39.29013622399084], [-0.2815807319691326, 39.29004909376227], [-0.2815332191754178, 39.289984920647846], [-0.281496942509298, 39.28993002144804], [-0.2814628370712295, 39.28987517087287], [-0.28141946640933124, 39.289797583373705], [-0.2813637627768485, 39.28970168903828], [-0.2812933806726602, 39.28959193881942], [-0.2812103161532833, 39.28947288241401], [-0.2811236332199647, 39.289353742375184], [-0.2810451123792734, 39.289248306390014], [-0.28098182337256655, 39.289161242496895], [-0.28093193902651453, 39.28908350194455], [-0.28088350276471696, 39.2890057953738], [-0.2808326949505822, 39.2889145192787], [-0.28077716738789726, 39.28881412537897], [-0.2807133007644568, 39.28870452672731], [-0.28064147237267495, 39.288594742268195], [-0.2805649260290039, 39.28847583851666], [-0.2804834856636459, 39.28835231589717], [-0.2804009475570348, 39.288219758729056], [-0.28031623642574505, 39.288087151250515], [-0.280230802150625, 39.2879545261391], [-0.28014574337132525, 39.2878309191673], [-0.28006413142778835, 39.2877118959223], [-0.27998596362502304, 39.287597459208456], [-0.2799157584889296, 39.287483207946565], [-0.27985534139617657, 39.287378194655105], [-0.27980598166626286, 39.28728695189787], [-0.2797687815320269, 39.28721851558029], [-0.27974119426966415, 39.28716381792872], [-0.2797161537311059, 39.287118188081955], [-0.2796936329669395, 39.28706360994041], [-0.27966983749335833, 39.2870044964351], [-0.27964204900837913, 39.28693628024591], [-0.2796100914421372, 39.28686346330332], [-0.279573964794666, 39.28678604350718], [-0.2795349428770498, 39.28670855618286], [-0.2794968183764006, 39.28662658626877], [-0.27945851960258117, 39.2865491154549], [-0.2794189479159745, 39.28646711198043], [-0.27937703072821324, 39.286389556860335], [-0.27933366545616406, 39.28631196688993], [-0.2792865065987058, 39.28623879400552], [-0.2792386236991203, 39.28616560366239], [-0.27918784552935627, 39.28609234649493], [-0.2791376171285827, 39.286023605862965], [-0.27909100804004794, 39.28595494929387], [-0.2790337161861636, 39.28588153963694], [-0.2789591703906286, 39.2857671847581], [-0.2788606853911104, 39.28561623700559], [-0.27875293965928094, 39.285442549937464], [-0.27865462803460245, 39.28528710081774], [-0.2785793617901952, 39.28517273036704], [-0.27852331679794895, 39.285085834537], [-0.2784718163826852, 39.285012560248134], [-0.27841704520152316, 39.284930199675216], [-0.2783604513386169, 39.28483878755126], [-0.27830637904673, 39.28473842605059], [-0.2782586452674626, 39.28464271738708], [-0.2782183252842405, 39.28454267753207], [-0.2781820019057384, 39.28445173979694], [-0.2781505689556347, 39.284365421568424], [-0.27811878745919055, 39.28428810261185], [-0.2780866583147364, 39.284219785738266], [-0.2780505595150419, 39.284160383365005], [-0.27800977061126836, 39.28410988160856], [-0.2779655366683594, 39.2840547935458], [-0.27791623532892357, 39.28399958723675], [-0.27786438726568324, 39.28393531262578], [-0.27780674866208593, 39.28387090167458], [-0.2777465624363871, 39.28379742308321], [-0.2776836579086046, 39.28371937620107], [-0.2776221987701186, 39.28364136330233], [-0.2775620134427168, 39.283567884470166], [-0.277505622599088, 39.28348998960653], [-0.277451953650731, 39.28341666358528], [-0.2774017288432125, 39.28334792241319], [-0.2773545735790093, 39.283274748518025], [-0.2773059702305516, 39.28320154047576], [-0.27725809092422105, 39.28312835043534], [-0.27720749241754333, 39.283050589975076], [-0.27715744278149207, 39.28297734901843], [-0.27710884122966184, 39.28290414136066], [-0.2770607876501611, 39.28283545044413], [-0.2770121852000339, 39.282762242638064], [-0.27696340937506686, 39.28269353489462], [-0.2769111885109644, 39.28262024280587], [-0.27685841787790494, 39.28254243241343], [-0.27680003097769224, 39.28245998688734], [-0.2767403711647257, 39.28237300633845], [-0.27667961361050625, 39.28227699267013], [-0.27661523584565056, 39.28218089264939], [-0.27655447829143104, 39.28208487871778], [-0.2764989606102142, 39.28198448267646], [-0.27645013447957634, 39.28187973788261], [-0.2764074725884212, 39.28178414699618], [-0.2763648115955966, 39.28168855667465], [-0.27632035397217697, 39.28160193257004], [-0.2762733747777715, 39.281524257332286], [-0.27622477412427177, 39.28145104954647], [-0.2761796194082045, 39.281382427434025], [-0.2761357376048911, 39.28131833816273], [-0.2760949253448929, 39.28124981604907], [-0.27605610914147866, 39.28118584625481], [-0.2760172938363615, 39.28112187501141], [-0.2759786528044145, 39.281053404856124], [-0.27593856548484064, 39.280984901257476], [-0.2758964785154612, 39.280911844492564], [-0.2758514989708947, 39.28083872159386], [-0.275802899215692, 39.280765513091644], [-0.2757557475447438, 39.280692339975445], [-0.2757091465410831, 39.280623681657175], [-0.27566291833821766, 39.28056404259805], [-0.2756224815740396, 39.280504537689986], [-0.2755851143531769, 39.28044060128712], [-0.275551365546256, 39.28037674965825], [-0.2755208632507786, 39.28030396553086], [-0.27549397847094603, 39.28023126616039], [-0.2754698155864521, 39.28016313446504], [-0.275444379789171, 39.280090469020585], [-0.27541587265194717, 39.28002223497175], [-0.27537868150088224, 39.2799537978138], [-0.2753362477817898, 39.27988974339378], [-0.27528785014753404, 39.27983005155834], [-0.275236382071666, 39.27977479394018], [-0.27518419085196777, 39.27971951819922], [-0.2751347197309472, 39.27966881158818], [-0.2750888670239019, 39.27961818838303], [-0.2750473585695867, 39.27956766944456], [-0.27501471019887674, 39.27951285108433], [-0.27499202055145605, 39.27946277223052], [-0.27497584548645265, 39.27941284492869], [-0.27496763129149354, 39.27936310464242], [-0.27496648324453626, 39.279318034344186], [-0.27496805260133217, 39.27927753112991], [-0.2749786859593748, 39.279246250433054], [-0.2749473868582386, 39.2792500213623], [-0.2749139174273817, 39.27925374083484], [-0.27487265960302326, 39.2792527735912], [-0.2748247138213408, 39.27925615511937], [-0.2747745968116406, 39.279259485190856], [-0.27472320688918667, 39.279258280830064], [-0.2746701937110109, 39.279261542756366], [-0.27461211403463887, 39.2792646857762], [-0.27455258807063987, 39.279267794027945], [-0.27449468266743815, 39.279266438079205], [-0.27443660388936314, 39.279269581098816], [-0.27438014746871286, 39.27926825783192], [-0.2743273085637074, 39.279267019398766], [-0.27427447055699894, 39.279265781660904], [-0.2742203596375367, 39.27926000810037], [-0.2741653504028105, 39.279258719601245], [-0.27410744589790575, 39.27925736226158], [-0.274046646122856, 39.279255936081434], [-0.2739771605373042, 39.27925430755199], [-0.2738988148681136, 39.27925697564233], [-0.27381630011769376, 39.279255041155146], [-0.2737316141392227, 39.27925305660207], [-0.27365037319988705, 39.27925565654738], [-0.2735714786600365, 39.27925380758924], [-0.2734969265763219, 39.279252058762665], [-0.27342544403588914, 39.27924587911158], [-0.2733610249485671, 39.279244368097466], [-0.2733052907733831, 39.279243061518734], [-0.27325896914575293, 39.27924197467327], [-0.2732193336787858, 39.2792365411411], [-0.2731811462960731, 39.279231141681144], [-0.273143508682284, 39.27923025927095], [-0.27310549557270813, 39.27922035944851], [-0.2730709284005982, 39.279215044821015], [-0.2730414259300236, 39.27920984840417], [-0.27298893826628323, 39.279199608548296], [-0.27294114250328283, 39.279180470179895], [-0.2729154336181842, 39.27917085961987], [-0.2728842854339937, 39.27915211064494], [-0.2728489681686074, 39.27912876116533], [-0.27281365180151806, 39.27910541167795], [-0.272778508809302, 39.27907756111629], [-0.27274264357158623, 39.279049693159564], [-0.27270877349212386, 39.27902637771851], [-0.2726785245215613, 39.27900314640834], [-0.2726497218385923, 39.27897994916323], [-0.2726236401526315, 39.27896131973936], [-0.27259845678196826, 39.27893820800982], [-0.272573821383601, 39.27891961195221], [-0.272551359908243, 39.27890106804182], [-0.2725312421374455, 39.27887807380863], [-0.27251040122285125, 39.27885506426991], [-0.27248973637805474, 39.278827552250355], [-0.27247268904893646, 39.27880012714037], [-0.2724585378882603, 39.27877276877451], [-0.27244655705730486, 39.27874546115948], [-0.27243981879437695, 39.278713773437275], [-0.2724374229874846, 39.27868218652847], [-0.27276530267630567, 39.278167369712506], [-0.27279150832976584, 39.27814546279631], [-0.2728218821661583, 39.27812815782969], [-0.2728533555404647, 39.27811988779818], [-0.27288699834616137, 39.27811166713684], [-0.2729204677770183, 39.27810794760372], [-0.27295303889257766, 39.27810871111978], [-0.272987606064721, 39.27811402722191], [-0.2730221732368644, 39.278119341932936], [-0.27305691647877206, 39.27812015551549], [-0.27309148365091546, 39.27812547161676], [-0.2731282229494071, 39.27813083639348], [-0.27316585966486573, 39.27813171951291], [-0.2732105607317321, 39.27813727203896], [-0.2732554360717353, 39.27813832413306], [-0.27329958647131425, 39.27813935953825], [-0.2733379481272306, 39.278140258651085], [-0.27337269136913833, 39.27814107362412], [-0.2734025414877229, 39.278137268562105], [-0.2734477662723971, 39.27812932048776], [-0.2734830314354851, 39.27811663416319], [-0.2735164757135233, 39.278094895510655], [-0.27353906385133875, 39.27807290443208], [-0.27356165019252665, 39.27805091195579], [-0.27358476114985286, 39.27801541815536], [-0.27360587515229806, 39.27797537452366], [-0.27362589051512637, 39.27792629521052], [-0.2736430115061401, 39.27787714910733], [-0.2736546914014679, 39.27781886577289], [-0.2736640239989466, 39.27776503208345], [-0.2736639485404571, 39.27771097861456], [-0.27365790826847375, 39.277661288577605], [-0.2736444542004786, 39.27761592999469], [-0.273628105760602, 39.27757050323568], [-0.27360686599402984, 39.277520457066736], [-0.2735857987040004, 39.277465911082786], [-0.27356490838206576, 39.27740686457786], [-0.2735454643477247, 39.277347852096675], [-0.2735269204253421, 39.277284355768515], [-0.27350765156250173, 39.277220842693744], [-0.2734883835979584, 39.2771573295614], [-0.2734712850648388, 39.277093867829514], [-0.273455462139431, 39.27703493992114], [-0.27344253089091314, 39.276976080805895], [-0.2734317735653711, 39.27691727101326], [-0.27342228915261624, 39.2768629971495], [-0.27341280473982793, 39.2768087225483], [-0.273399524945003, 39.27675886289328], [-0.2733833516766272, 39.27670893644599], [-0.273361762465384, 39.276667890714336], [-0.273335106755978, 39.276626726047944], [-0.27330410859046955, 39.27658545983114], [-0.27326387574383254, 39.27653947261867], [-0.27322326740140884, 39.27648446830697], [-0.2731777686305866, 39.276424844499466], [-0.27313027290488345, 39.27636066863688], [-0.27308367639277475, 39.276292010245484], [-0.2730414205401411, 39.276223453313534], [-0.27300568016825516, 39.27615504860479], [-0.27297717842091385, 39.27608681419971], [-0.27295518945939573, 39.276018732714135], [-0.2729389901398707, 39.275950787459074], [-0.2729222428480162, 39.27587832417671], [-0.27290042815966836, 39.275805741907206], [-0.2728661358720034, 39.275737371560254], [-0.2728260530440151, 39.27566886554478], [-0.27278724312881386, 39.27560489343575], [-0.27275349971177554, 39.275541040876305], [-0.27272409964917016, 39.27547728978644], [-0.2727003140570905, 39.275418174847445], [-0.2726774276785719, 39.275354576633205], [-0.2726552644438836, 39.27529099505081], [-0.27263093087947443, 39.27522736195118], [-0.2726060475461084, 39.275159212872104], [-0.27257844321573405, 39.27508649564547], [-0.2725539093270055, 39.275009345164754], [-0.2725317218378289, 39.27492774542103], [-0.27251187984980696, 39.2748416957034], [-0.27249203876014894, 39.27475564727085], [-0.2724703983449379, 39.274678564575424], [-0.2724465893966671, 39.27460143103057], [-0.272419710006717, 39.2745287306102], [-0.2723924820704599, 39.27446503075473], [-0.27236507716610797, 39.27440583012202], [-0.27233894786943436, 39.274351164884735], [-0.2723162609169382, 39.274301083732034], [-0.27229357396440856, 39.27425100393427], [-0.27226854240902143, 39.27420537193412], [-0.2722436851268045, 39.274155241303106], [-0.27221465966165537, 39.27410050772021], [-0.27218091714294745, 39.27403665448513], [-0.2721437313817651, 39.273968215652395], [-0.27210292630831046, 39.27389969260805], [-0.2720594011361446, 39.273826601333155], [-0.2720144287780882, 39.273753476602245], [-0.2719707284344551, 39.27368488589274], [-0.27192720416061966, 39.27361179439377], [-0.2718885712135133, 39.27354332176614], [-0.2718512102808636, 39.27347938318261], [-0.27181402451968123, 39.273410945196375], [-0.27177900998651666, 39.27334255790876], [-0.2717432723095888, 39.27327415247355], [-0.2717082586747546, 39.27320576574781], [-0.2716759642402678, 39.27314194716378], [-0.27164366980581445, 39.27307812713071], [-0.2716077578557163, 39.27301422289368], [-0.27157022444649037, 39.27295478528748], [-0.27153106688327916, 39.27289981362808], [-0.271490463032441, 39.27284480784986], [-0.27144913513947555, 39.27278978533829], [-0.2714134217170359, 39.2727393991696], [-0.2713786084065212, 39.272684530263895], [-0.2713481366537451, 39.272629762151794], [-0.27132200735710493, 39.272575096224244], [-0.2712962275050688, 39.272511429363945], [-0.27126682923909096, 39.272447678994624], [-0.27120953109699364, 39.27235624571327], [-0.271095006678067, 39.27222743583846], [-0.27096496206595416, 39.271994659637876], [-0.270881709798684, 39.27184406052154], [-0.27086127043102565, 39.27184808568188], [-0.270841679072994, 39.27181159009825], [-0.27074138217153004, 39.271633565454835], [-0.2706396398807362, 39.27145550628277], [-0.2705364504040518, 39.27127741258185], [-0.27043670327154484, 39.27110390415549], [-0.2703416749892242, 39.27093951461773], [-0.2702539068910117, 39.27079331468899], [-0.2701737520148335, 39.27065630126837], [-0.27010285517597493, 39.2705420272418], [-0.2700366762890057, 39.270436872412525], [-0.2699724916619593, 39.27033626912602], [-0.269905412663065, 39.270235597541166], [-0.2698368873765437, 39.27013489243016], [-0.26976781321942933, 39.27002966953122], [-0.2696981910899521, 39.2699199295196], [-0.26962929030764404, 39.26981020602695], [-0.26956383636109904, 39.269705069572176], [-0.2695007279157755, 39.269595481356724], [-0.2694405138422665, 39.26948596181995], [-0.26938174605638454, 39.26937647758032], [-0.269321531982909, 39.26926695770129], [-0.2692605965622308, 39.26915742096011], [-0.26919910957596804, 39.2690433677319], [-0.26913617720044225, 39.26892928024047], [-0.26907396796867983, 39.26881520925443], [-0.2690112089679938, 39.2686966210491], [-0.2689507972651234, 39.26857358306158], [-0.26889492924097197, 39.26846416694308], [-0.26884866600385315, 39.26836848750938], [-0.2688145551759021, 39.2682956151008], [-0.2687877045320592, 39.268240933273695], [-0.26876123028230015, 39.268195266759015], [-0.2687304117798444, 39.268149499371575], [-0.2686903621895488, 39.26809901041421], [-0.26863563861906614, 39.26803466418586], [-0.2685646196093357, 39.26796092556941], [-0.2684850935538591, 39.26788248270747], [-0.2684064631187219, 39.2677995567444], [-0.2683379665783078, 39.267716869230476], [-0.2682787020240642, 39.26763890249491], [-0.26822829845178986, 39.26755663972638], [-0.2681829595810843, 39.26747449578758], [-0.2681408654251948, 39.267383418360296], [-0.2680966000412541, 39.26729229074034], [-0.26804816737271153, 39.267196560327754], [-0.26799449483109955, 39.26710521199797], [-0.2679373790470465, 39.267009278249716], [-0.26787791776173847, 39.26691779405704], [-0.2678157363777862, 39.26682173973387], [-0.26775355499380044, 39.26672568667004], [-0.26769099901235843, 39.26662061722258], [-0.2676300680832657, 39.266511079822514], [-0.2675705825434695, 39.266401576330075], [-0.2675139913755213, 39.26629214151979], [-0.26745650279060607, 39.26618718965539], [-0.2673977430895646, 39.26607770373962], [-0.2673331928481996, 39.26596808064128], [-0.2672662971056131, 39.26586290782078], [-0.2671981302469004, 39.26575320092732], [-0.2671312336060169, 39.26564802778444], [-0.26706578594768493, 39.26554288925841], [-0.26700051435911726, 39.26543325002262], [-0.266934692103329, 39.265319092668506], [-0.26686887074580434, 39.26520493651948], [-0.2668025023143141, 39.26508626291818], [-0.26673685612829023, 39.26496760511252], [-0.2666768253111226, 39.26485358470925], [-0.2666267738784438, 39.26476232095894], [-0.26659122035612076, 39.264689415589594], [-0.2665650982459572, 39.26463474833636], [-0.2665429664523006, 39.264589183797504], [-0.2665182915280945, 39.2645345512413], [-0.26649162144560146, 39.264475367257134], [-0.26646133025424207, 39.26441609837126], [-0.26642904570125675, 39.26435227734638], [-0.26639548823548426, 39.26428392433965], [-0.2663612067276179, 39.26421555179214], [-0.2663272764610167, 39.26413817860324], [-0.26629261945736366, 39.26406079002772], [-0.2662574171763057, 39.263978884029086], [-0.2662211405101859, 39.26390596115261], [-0.2661835909313124, 39.26382850276955], [-0.26614424472187737, 39.26376001223613], [-0.266103277053348, 39.26369598682857], [-0.2660594132163432, 39.26363189528877], [-0.26601210613683035, 39.26356321816544], [-0.26596045839790955, 39.26349443734313], [-0.26590626573174475, 39.26341658901653], [-0.2658511756486464, 39.26334322320661], [-0.26579825589526884, 39.2632699087882], [-0.2657453361418578, 39.26319659568407], [-0.2656922412170129, 39.26312778111711], [-0.26563859831980513, 39.263054449085345], [-0.2655864026085548, 39.26298115175288], [-0.2655362020555245, 39.26291240513545], [-0.26548962171309687, 39.26284374399971], [-0.2654434141714981, 39.262784101629904], [-0.26539520877672124, 39.262719906318964], [-0.26534139070804613, 39.262651075286975], [-0.2652834071513968, 39.26257764120997], [-0.2652225274263055, 39.26250413959015], [-0.2651603774833515, 39.26242610376288], [-0.2650996747263549, 39.26234810123399], [-0.2650434878002671, 39.2622657014964], [-0.2649939888315033, 39.26217895391707], [-0.2649502795046992, 39.26209234255399], [-0.26491073656423314, 39.262010333403374], [-0.26487336575008197, 39.26192837493052], [-0.2648359931393367, 39.261846417752906], [-0.26479807345455897, 39.26175994160773], [-0.26475743367110355, 39.26166889918201], [-0.26471479872939463, 39.26157330436865], [-0.26466909514266745, 39.261482141372944], [-0.26462284268534725, 39.261386460754], [-0.26457641415819577, 39.261295280822445], [-0.2645312585437981, 39.26120863498171], [-0.2644882741574517, 39.261122041199314], [-0.26444583774343466, 39.261039964141695], [-0.264403576500885, 39.260953386843866], [-0.26436059301286896, 39.26086679205055], [-0.2643154382968018, 39.26078014707129], [-0.2642675625837263, 39.26068893226954], [-0.26421859182432245, 39.2605886850192], [-0.264165826581179, 39.26049285016086], [-0.26411179022187586, 39.26039248369182], [-0.26405613150518137, 39.26029658109722], [-0.26399703134263997, 39.26019609471298], [-0.26393268951043497, 39.26009998874957], [-0.2638627350042983, 39.25999924612131], [-0.2637877157966263, 39.25989838580017], [-0.2637081789613511, 39.25980192191515], [-0.2636257468559309, 39.259705390428806], [-0.26354314137567086, 39.259613359735525], [-0.26346470407834305, 39.25952593001294], [-0.2633917033850823, 39.25944763907927], [-0.263324492333848, 39.25936948299603], [-0.2632608987982584, 39.2592914116835], [-0.2631994764906867, 39.2592133917553], [-0.2631402254111662, 39.259135422516], [-0.2630833198328672, 39.25905300578631], [-0.26302858458428896, 39.25897063834448], [-0.2629767446058892, 39.25888833827525], [-0.26292814934227204, 39.25879710779621], [-0.2628837213632566, 39.25871047764786], [-0.26284308607138673, 39.2586194347394], [-0.26280606829516157, 39.25852847518042], [-0.26277321780353813, 39.25844211875274], [-0.26273946809832016, 39.25836024583601], [-0.2627021008774575, 39.25827828726897], [-0.2626565985133468, 39.25820064112405], [-0.2626051331324033, 39.258127359583256], [-0.2625503996804525, 39.258044992444965], [-0.2624951182562058, 39.257958108179814], [-0.2624405608740529, 39.25787124119624], [-0.26238979707734245, 39.25777995931245], [-0.26234447168136, 39.25769781226246], [-0.262304034917182, 39.25762028650439], [-0.2622674141963072, 39.25755636260725], [-0.26223333750431244, 39.257501507550515], [-0.26220035855360413, 39.257455687272234], [-0.26216737870456525, 39.25740986765965], [-0.2621340260546977, 39.257355029877665], [-0.26209740713045043, 39.257291106434195], [-0.2620560720509749, 39.25721806322122], [-0.26200802745464524, 39.25713134904345], [-0.26195871084385886, 39.25704010027965], [-0.26191266230407967, 39.25695793706], [-0.2618727753088252, 39.2568849275833], [-0.2618367043569074, 39.2568255222058], [-0.2618002830620216, 39.256775115516874], [-0.261760593696162, 39.25671562448972], [-0.2617178356852507, 39.25666056566501], [-0.26167362959011836, 39.25660547201787], [-0.26162797630906204, 39.25655034424383], [-0.26158232482463323, 39.25649521642649], [-0.2615346781819844, 39.256435537353894], [-0.2614850345844212, 39.25637130840562], [-0.26143249661504336, 39.25630700914431], [-0.26137958674310036, 39.25623369293157], [-0.26132667597289383, 39.25616037664213], [-0.26127521328687486, 39.25608709644665], [-0.2612275432880014, 39.25600939848809], [-0.2611856620328574, 39.25593183817022], [-0.2611473991916218, 39.255854361933054], [-0.2611122049954378, 39.255772455388254], [-0.26107791091114546, 39.25568606287297], [-0.2610434398587582, 39.25560417282576], [-0.26100680027324435, 39.255522231209035], [-0.2609661919308206, 39.25544920423857], [-0.2609203428170304, 39.255380558051876], [-0.2608659857591969, 39.2553072088729], [-0.2608023985118204, 39.255229137210165], [-0.26073337466034346, 39.25514192739362], [-0.2606638010398761, 39.25505020164232], [-0.2605974748292162, 39.254949542185344], [-0.2605371098387281, 39.25484452047203], [-0.2604847057183177, 39.254739685718334], [-0.26044043584282495, 39.254630537374936], [-0.2604037746977474, 39.25453057709293], [-0.2603736245418656, 39.2544307697014], [-0.26034818874458454, 39.25434008295024], [-0.26032764247743834, 39.25425401630069], [-0.26031143686970026, 39.25416805179969], [-0.2602997497878624, 39.25407768816664], [-0.2602902312390844, 39.253987375892194], [-0.2602783689857793, 39.253901511927786], [-0.2602632611193276, 39.2538245815884], [-0.26024326462110503, 39.253743031608025], [-0.2602190999399501, 39.25365687936079], [-0.2601914956095758, 39.253566141524566], [-0.26016334061194746, 39.25347088486049], [-0.26013880402829437, 39.25337571501887], [-0.2601197058453358, 39.25328968196634], [-0.2601047731503849, 39.253208251705544], [-0.26009128764132455, 39.253126854739875], [-0.2600750838302474, 39.25304088885701], [-0.2600561617170866, 39.25295035612698], [-0.2600330723193575, 39.25285521827301], [-0.2600049191183567, 39.2527599634256], [-0.25997260042934817, 39.252660106211415], [-0.2599381105123553, 39.25256019668326], [-0.2599028965532018, 39.25246027101339], [-0.259866960348582, 39.25236032781044], [-0.25983212008858764, 39.252269418563635], [-0.2597976526294555, 39.25218752800414], [-0.25976211168355856, 39.25211462068662], [-0.2597215069344233, 39.25204159364526], [-0.2596758356870583, 39.25196844757518], [-0.2596258246785489, 39.251895199171244], [-0.2595749144564449, 39.251826433334664], [-0.2595261754623922, 39.25175772029869], [-0.25947960679806026, 39.25168905658521], [-0.2594337621758555, 39.251620411586586], [-0.25938863979915056, 39.251551782520345], [-0.25934441843263417, 39.25147867002541], [-0.2593010944831182, 39.25140107478343], [-0.259259040751398, 39.25132801360844], [-0.2592193361141878, 39.25125050376301], [-0.25917980485178393, 39.25116849305965], [-0.2591409985298043, 39.251086498955715], [-0.2591016433372317, 39.25099998936442], [-0.2590617401722961, 39.250908960790824], [-0.2590183955615135, 39.250813347131505], [-0.25897178377805424, 39.250708646870294], [-0.258919186519868, 39.2505902937667], [-0.2588586104252954, 39.250453735455714], [-0.2587869607982359, 39.25028538447634], [-0.25870261797622274, 39.250089707354626], [-0.2586658292703907, 39.25003028369811], [-0.2586317606632365, 39.249975428318265], [-0.25860040766320797, 39.24992514122593], [-0.25856743410238214, 39.24987932017029], [-0.25853301335563234, 39.2498334649979], [-0.25849732149275634, 39.24978307484739], [-0.25825304441417346, 39.24939895067273], [-0.2581204512816287, 39.24923366709267], [-0.2579868915618069, 39.249018811908584], [-0.2579620747037593, 39.248986696131794], [-0.2579300210177946, 39.24895440990377], [-0.25790950259839174, 39.2488863611913], [-0.25792155978613374, 39.248837096634254], [-0.25787819631074554, 39.24872346460881], [-0.25786942695694687, 39.24865118743792], [-0.2578706558522428, 39.24861968576274], [-0.257874953392557, 39.24858375131017], [-0.2578761804912589, 39.248552250300314], [-0.25786837682637326, 39.24852954385276], [-0.2578536875748357, 39.24849766646453], [-0.25783864887866054, 39.24847479025729], [-0.25781637425289883, 39.24845174360491], [-0.25779317975224253, 39.24841516140264], [-0.2577698100801524, 39.24838308082833], [-0.25774933298324926, 39.24835106632747], [-0.25772578634299736, 39.248323485287635], [-0.25770241756920426, 39.24829140397571], [-0.25769154346270634, 39.248273130226806], [-0.25766979524967704, 39.24823658201902], [-0.25765493172496917, 39.248209204764436], [-0.257642786502345, 39.24818639733412], [-0.25762809725080743, 39.2481545204856], [-0.25761034025258206, 39.24812707571924], [-0.2575844265515785, 39.248085924202115], [-0.2575641273211007, 39.2480494106802], [-0.2572813655174325, 39.247538253465216], [-0.2572695724344039, 39.247506444498065], [-0.25709108078069504, 39.247069814807865], [-0.25705591802554284, 39.247005923728345], [-0.25701623674449037, 39.24694643067355], [-0.25698234510546436, 39.24688707531291], [-0.25695533815475985, 39.24683688966235], [-0.2569270573929711, 39.246782170225124], [-0.25690675726419626, 39.24674565672006], [-0.256887904321312, 39.24670917658874], [-0.25686361477436065, 39.246663560049385], [-0.2568501984355768, 39.24663621696486], [-0.2568366069253257, 39.246613374934576], [-0.2568132372532021, 39.246581292840325], [-0.2567876774884216, 39.24653114245083], [-0.2567536088813008, 39.24647628572533], [-0.2567128334522169, 39.24640775876019], [-0.2566649999599717, 39.24633456089842], [-0.2566213319557008, 39.24626596561758], [-0.2565916049063186, 39.24621121095059], [-0.25656858647546005, 39.24617012926935], [-0.25655824147665246, 39.24613835446606], [-0.25654337795197807, 39.246110977783786], [-0.25653013678469494, 39.246079134080645], [-0.2565156253995826, 39.24604275726014], [-0.25650093704637555, 39.246010880132935], [-0.25648480330387197, 39.24597896820684], [-0.2564632320589709, 39.24593792117399], [-0.25643640027973363, 39.24588323512419], [-0.2564148290347991, 39.24584218594826], [-0.256394353734557, 39.245810173765975], [-0.25637006418757224, 39.24576455594621], [-0.2563446795942925, 39.24570990524146], [-0.25632328621578326, 39.245664356229994], [-0.2562995221832673, 39.24560523910245], [-0.25628501079815497, 39.24556886134051], [-0.2562590988937789, 39.245527711105034], [-0.25622827859469577, 39.245463922974714], [-0.25619491426673263, 39.24539106501821], [-0.2561704064291533, 39.24531391315523], [-0.2561538783262573, 39.24525496617781], [-0.25614081412706896, 39.24521862232327], [-0.2561221372539824, 39.245177642328], [-0.25610363645072715, 39.245132162540564], [-0.25607807758424367, 39.245082010419104], [-0.25605089366544437, 39.24503632603445], [-0.25601972212509616, 39.24498153840534], [-0.25599543167981437, 39.244935920742336], [-0.25571045552896765, 39.24451929947478], [-0.25569414661496326, 39.244491888766795], [-0.25515647527303364, 39.24357382213639], [-0.25484288688206924, 39.242962835025956], [-0.2547859831003978, 39.24286239615406], [-0.2547317976207765, 39.242766524543484], [-0.2546734466531811, 39.2426660506044], [-0.2546149205141183, 39.24257007784571], [-0.2545721337571332, 39.24247898058519], [-0.2545244799279409, 39.24240128146272], [-0.25447375655539983, 39.24232801402156], [-0.25443333775753046, 39.24225048588036], [-0.2543938379361583, 39.24218649161757], [-0.2543601259601851, 39.24212263505028], [-0.2543343937188619, 39.24207698352445], [-0.2543139202152138, 39.24204497101518], [-0.254289633363187, 39.24199935283375], [-0.25427674523383, 39.24195850940762], [-0.2539989403338788, 39.24146998314708], [-0.25359063537602006, 39.240726129622566], [-0.2535496919619789, 39.24066210196501], [-0.2535187000846835, 39.24060281364337], [-0.25350418959790166, 39.2405664360699], [-0.2534851641785081, 39.240534455571215], [-0.2534693843722276, 39.24049354380506], [-0.2534505350225983, 39.24045706320493], [-0.253436025434147, 39.24042068625164], [-0.2534086699371019, 39.2403795002959], [-0.25336592809590525, 39.24032443838473], [-0.25332081829559283, 39.240255808700624], [-0.25327281592005996, 39.24018710937474], [-0.2532192017689594, 39.24011377282924], [-0.2531683068182395, 39.240045005876794], [-0.25312157555883286, 39.239980841230896], [-0.2530819032609514, 39.23992134778337], [-0.25305056014235744, 39.23987105835235], [-0.2530204872415927, 39.239825305173284], [-0.25299041613745543, 39.23977955126861], [-0.252963412780006, 39.23972936470707], [-0.2529365854923543, 39.23967467938268], [-0.2529072159724836, 39.23961092489167], [-0.25287964487976855, 39.23953820278905], [-0.2528477340259424, 39.2394653790311], [-0.2528147272274574, 39.23938352152755], [-0.25278119311790953, 39.23931516365875], [-0.25263693176809904, 39.23904149356854], [-0.25262913079817145, 39.239018787520685], [-0.2520844804447916, 39.23809603910697], [-0.25206037145919014, 39.23804592161356], [-0.25146685994085227, 39.23707697196356], [-0.25145309505576136, 39.23705862919409], [-0.2509855812391789, 39.236200759302584], [-0.25094446534862846, 39.23614123133902], [-0.25089484600558687, 39.23607699702292], [-0.2508428596017936, 39.235999194095086], [-0.2507867104049506, 39.23591678913641], [-0.2507345488296565, 39.23584348569951], [-0.25067984502214347, 39.23576111395586], [-0.2506296588421333, 39.235674345413365], [-0.25058183702798376, 39.235601144700354], [-0.25052823096172366, 39.23552780823146], [-0.250487291140971, 39.235463779308425], [-0.2504402140301819, 39.23540861473642], [-0.2503893244693446, 39.23533984525921], [-0.25034549117507443, 39.235275748672606], [-0.2503099888567193, 39.23522085600868], [-0.2502772021454898, 39.2351705339848], [-0.25024296914663335, 39.23512017574338], [-0.25020492369772873, 39.235056216028084], [-0.25017249002439185, 39.23499689304954], [-0.2501514532770637, 39.23494234250015], [-0.2501300652884705, 39.23489679345469], [-0.25011591053453924, 39.2348514148504], [-0.2501053921608584, 39.23482414022023], [-0.24997250797415402, 39.23451920483315], [-0.24995493063898142, 39.234487259151095], [-0.24953894598373644, 39.23375672453662], [-0.24885667013557178, 39.23257846363965], [-0.24840209834727228, 39.23176142941045], [-0.24809399237449367, 39.231272173186625], [-0.24807045561574337, 39.23124459169374], [-0.24776616658459846, 39.23076893831293], [-0.2474125816039338, 39.23018401320891], [-0.24711917027257543, 39.229726634008045], [-0.2469887106388036, 39.2294713018919], [-0.24677376894416864, 39.229006768116136], [-0.2450124367766768, 39.226028222831516], [-0.24386812414023293, 39.225505647017826]]]}}