{"type": "Feature", "properties": {"slug": "brenne", "name": "Grande Brenne", "natura_codes": ["FR2400534"], "natura_names": ["Grande Brenne"], "sea_clipped": false}, "geometry": {"type": "Polygon", "coordinates": [[[1.22044701904268, 46.63087126255961], [1.2177348668593835, 46.63124361601527], [1.2069233369877919, 46.63272724902657], [1.2059671216903531, 46.63285841487213], [1.2081870644716277, 46.636331921320696], [1.2095966127805684, 46.64023016405741], [1.2087373382786708, 46.642108490494515], [1.2082768438977414, 46.64221910972865], [1.2080022675429252, 46.642285066341714], [1.2035428768606657, 46.64335575534312], [1.2031861855057377, 46.64344182756482], [1.1995565812278215, 46.63930904383602], [1.1928451078400346, 46.640180400530184], [1.1858543051112889, 46.641442601850684], [1.1811051224099096, 46.64229979715902], [1.1793645700716096, 46.64221508919983], [1.1779757225400824, 46.64214747778561], [1.1755346172308063, 46.6410177316976], [1.1740811907118072, 46.639739519645964], [1.1718652984341782, 46.63779060382979], [1.1704433120517925, 46.63796019815256], [1.1679252336991242, 46.63826047408797], [1.1658850231449498, 46.63694926594723], [1.1632951208920181, 46.63608945077995], [1.1611441193172543, 46.63748895106983], [1.1536647624313427, 46.64437860922478], [1.150224151112771, 46.64846116469521], [1.1419738816096228, 46.65478868614225], [1.1323339983119562, 46.65991955285163], [1.125262405598151, 46.666278127743155], [1.1229926638108156, 46.66732024878842], [1.1173030159738742, 46.6688207149712], [1.1140118690472345, 46.672189375386125], [1.1140728790280718, 46.67398959600837], [1.116082776831256, 46.68214872907494], [1.1144927354221734, 46.68590899161336], [1.1139318561048643, 46.6897702436768], [1.1149115327025974, 46.691499313926876], [1.1194021326544834, 46.693668060778386], [1.1228030824549389, 46.697066740146326], [1.1199520785764525, 46.699447798593766], [1.119365642189321, 46.70121189540946], [1.119350555882433, 46.70124009156934], [1.1203229058207058, 46.7031480270839], [1.1203934460283833, 46.704288174227685], [1.120438066246844, 46.70500935704793], [1.1205525349702508, 46.7068593345853], [1.1198127777236813, 46.70890833734539], [1.1118429667437761, 46.711639426282446], [1.1115920600984142, 46.71740608736305], [1.1120728725744273, 46.72165997078098], [1.1137118416237866, 46.72322153548327], [1.1195821694104664, 46.73018907719643], [1.1193771217603292, 46.73079711977225], [1.1193392613643602, 46.730909388098354], [1.1192819452559877, 46.73107934916854], [1.1172660835376065, 46.73200975543848], [1.1151413127691214, 46.73299035454206], [1.1095028572252725, 46.73305769780334], [1.0981921012109641, 46.73057823853443], [1.0951506410175282, 46.73113908198394], [1.0879009671801212, 46.72910936187671], [1.0851414980358438, 46.72914935167284], [1.0825998371103063, 46.73026869741556], [1.0812911103189675, 46.730326303148686], [1.0693605320299675, 46.73332852367684], [1.0634397359923222, 46.73384756057323], [1.059630124602827, 46.7278160963917], [1.0538900740919417, 46.72496017428826], [1.0524397728118111, 46.72423803936312], [1.049808991823563, 46.724547651423045], [1.0474798839723447, 46.723777273388286], [1.0461593308602848, 46.72402779652775], [1.0449900091263145, 46.72679672145366], [1.0427192432595545, 46.72783996646399], [1.0426979028816405, 46.728329675923], [1.0424996635630719, 46.73287808008071], [1.042789115120658, 46.74126734761347], [1.0453986581389618, 46.744757427937444], [1.0448938256105265, 46.745114736333754], [1.0382192774724968, 46.74983814632635], [1.0281791938174851, 46.75458698735277], [1.0187479181934196, 46.76034704172285], [1.0148041739589544, 46.75920461371966], [1.0130478094750115, 46.75869576781051], [1.0115678637905319, 46.75851822635584], [1.010308088893958, 46.75836708254024], [1.004636832265826, 46.75896698369726], [1.0008784140677536, 46.7594738029874], [0.9984778452356665, 46.75985783717972], [0.9913798842733266, 46.76100005440949], [0.987184558758679, 46.76218152904587], [0.9870283866465536, 46.76224267414251], [0.9863851955980686, 46.762584198780985], [0.9847469955065915, 46.763788557500746], [0.9853566731067617, 46.764787336103794], [0.9948260867061993, 46.767249101059875], [1.0048681736043388, 46.77159820631018], [1.0051050018525562, 46.77227577715209], [1.0055674491709423, 46.77359757306055], [1.0053065667343464, 46.77954572564005], [1.006267529628045, 46.78154543401022], [1.0060764220344998, 46.78587657288219], [1.007367813137485, 46.78634777842126], [1.0146972322193273, 46.792906654996], [1.0173581373123082, 46.78899633078948], [1.0186779403311252, 46.7888477893408], [1.0208579727609208, 46.79005519823373], [1.0236280330424103, 46.78975950526221], [1.0354180699051807, 46.78737845088708], [1.0373182726324344, 46.78579664789039], [1.037501752630892, 46.78582646184899], [1.0386280630290696, 46.78600947256853], [1.0410083245458384, 46.78857562661296], [1.045359223894611, 46.78812635385095], [1.0513285280592881, 46.78671975346406], [1.054671091857828, 46.782113293220014], [1.0556494227792421, 46.78076852653688], [1.0582897537573004, 46.780546131989006], [1.0634702400844274, 46.78199676830078], [1.070167600040783, 46.78695540165075], [1.071739182867407, 46.78811879089039], [1.074340274535518, 46.787835078845774], [1.0745106966230338, 46.787816488720594], [1.0747968702281447, 46.787975801161444], [1.0751171474746966, 46.7881540980237], [1.0810507912175296, 46.79145695169024], [1.082058919256933, 46.792516599165], [1.0828103321443088, 46.79330637850662], [1.083329865602344, 46.79338267606111], [1.0842404159406307, 46.793516390557855], [1.0844296487502005, 46.79364667357203], [1.091466559307534, 46.798490749245396], [1.091521245148772, 46.79852838948214], [1.0915116771926534, 46.79854671147652], [1.090562511873569, 46.8003642667094], [1.089727998534199, 46.8019621680898], [1.0878220654537607, 46.80561120969677], [1.0875097284159863, 46.8062091507841], [1.0864406101587152, 46.8068066130115], [1.0836907233435762, 46.80657859058924], [1.079971093501108, 46.8105561588026], [1.0789800927409314, 46.811392525522834], [1.0764296516817966, 46.81355842356894], [1.0767898455680072, 46.81446575616734], [1.0834706414888495, 46.81793841195916], [1.0895815129557753, 46.819406990997805], [1.1010312356495682, 46.821978515054305], [1.1066505355182776, 46.82263648830876], [1.1098307405073484, 46.8250369895803], [1.1099513474190887, 46.82522722985341], [1.1128411342632964, 46.8285269849567], [1.119513203051137, 46.8330330864207], [1.1199923392708662, 46.83335663486077], [1.116101310872204, 46.838427618886385], [1.118931274410107, 46.84614885185849], [1.119910990533679, 46.84787509613365], [1.1216918484821474, 46.84926792626844], [1.119492137557735, 46.85165590095805], [1.1197502558781953, 46.85179756339037], [1.1205119365092953, 46.85221558733556], [1.1317220380926614, 46.851358765572364], [1.1358126865204645, 46.85098965677221], [1.1358032919392527, 46.850890392705566], [1.135714515931297, 46.84995568670736], [1.1356328626652268, 46.84908929927686], [1.1362318826528661, 46.84728888211485], [1.140922600300585, 46.845037304854245], [1.1409580882458867, 46.84496392166436], [1.141106102756937, 46.84465784926078], [1.1413524926730594, 46.84414834426747], [1.136561926383195, 46.83927826421716], [1.1345229231647864, 46.83842887430946], [1.1317827516294565, 46.837287300412605], [1.1313640531637135, 46.83673241888206], [1.1311627209456048, 46.836465597064176], [1.1370730848478574, 46.833246292126326], [1.142003274485718, 46.83478694191716], [1.1434516003705313, 46.83501026519371], [1.153362827884557, 46.83653797421479], [1.162243440731036, 46.83769742655677], [1.167943704857975, 46.83979638745221], [1.170803384665462, 46.8402277542011], [1.1760579873934445, 46.84102018012732], [1.1761641269375305, 46.84103618338536], [1.1840197755195387, 46.844538247540406], [1.184424377621795, 46.84471859286061], [1.186954493399303, 46.84394775687866], [1.1891732450145267, 46.843696760145434], [1.1924317642317228, 46.84332805952406], [1.192728935012534, 46.84329442916385], [1.1941613122078123, 46.84313232135264], [1.19579417450987, 46.842947500597475], [1.196658366389579, 46.84214721531049], [1.1973238985391774, 46.84153087858363], [1.197705108511483, 46.84117784003097], [1.197904982763869, 46.83306686209476], [1.197065008565877, 46.83115555046684], [1.1981859982426466, 46.829288040725125], [1.1999554089594355, 46.82778776513677], [1.2026358012058849, 46.826579006243136], [1.2013950661017585, 46.82474742212331], [1.2012225302784056, 46.82266311379677], [1.2012154246044981, 46.82257726013503], [1.2013653767816208, 46.8224738479413], [1.202191957997054, 46.82190379907514], [1.203244947003407, 46.821177580607504], [1.2040796651586818, 46.821157837149556], [1.2074550533977293, 46.82107794058318], [1.2084446509894398, 46.8191982393639], [1.2071555694550586, 46.818729355585575], [1.2065663051713975, 46.816907855730385], [1.2069414003115273, 46.81661332833888], [1.2082735875048296, 46.815567243668966], [1.208465145154321, 46.81541682061818], [1.20924956034863, 46.815430556878745], [1.2126125060226804, 46.81548938533815], [1.2141060279460607, 46.81551547890804], [1.2251962448631863, 46.81419763912994], [1.2368265019796545, 46.81215962450521], [1.2422564324949021, 46.81099973128413], [1.2476724076822074, 46.81208837035143], [1.24772636678636, 46.81209921359478], [1.2497679975769789, 46.813758844672435], [1.2508238584973193, 46.8165862080552], [1.252617565049306, 46.82138865363464], [1.251296371438449, 46.82487880350215], [1.2502275720830807, 46.825390509116396], [1.2499268565501565, 46.82628919140275], [1.2509069319998671, 46.82810876253046], [1.2502376107563782, 46.83188850017374], [1.248237034770874, 46.83590930407973], [1.2442473030820653, 46.84043745465271], [1.2492877393614747, 46.84250984156501], [1.2532806268318866, 46.84364957239758], [1.256046601575444, 46.84443898383955], [1.2550469581238923, 46.846408950657185], [1.2551072368760925, 46.8482089862872], [1.2564824407951034, 46.85034447576486], [1.257416796488406, 46.85179528416343], [1.2574577569704253, 46.851858882545486], [1.2576463456879095, 46.85375909290189], [1.256926964028604, 46.855547272483626], [1.2527780526680878, 46.85944979770798], [1.2524162660688567, 46.85979006558828], [1.257617289680059, 46.86114740123671], [1.262798132638367, 46.86322768587041], [1.2741982243110561, 46.86415726381308], [1.2797785642458825, 46.86254890275358], [1.2826686116015487, 46.862688004012625], [1.283988355331557, 46.86235825162258], [1.287528024774795, 46.859178709637], [1.2920984328531464, 46.85673725026629], [1.299357701596118, 46.85573928759242], [1.3037190178089662, 46.855139479367544], [1.3096456879302316, 46.8551657361412], [1.3100293700661827, 46.855167425489114], [1.3111894157965245, 46.85572665201755], [1.3117798919075034, 46.85754038222819], [1.3122801591976563, 46.85797670314811], [1.3131422409347833, 46.85872857070862], [1.315469722835355, 46.86075835439354], [1.319894602939355, 46.867335345270966], [1.3205698656401132, 46.86833887717029], [1.3208130827066544, 46.86895191660686], [1.3213478623717276, 46.87029979938393], [1.3235602799658504, 46.87587532120251], [1.32719972708433, 46.883967120736706], [1.3291720088333556, 46.887743495232385], [1.3292362877834973, 46.88777284687009], [1.329427219307245, 46.88808943084894], [1.3294421663752494, 46.888258708103315], [1.3304872403256436, 46.890257069061704], [1.33062957478918, 46.89052922430653], [1.3314158989034544, 46.89007661760689], [1.331710391806418, 46.88990710605055], [1.3335569803825378, 46.889691162489505], [1.334713073525651, 46.889555951602915], [1.3376311348434344, 46.88921461387337], [1.3377798078195904, 46.889197220938925], [1.33823379660124, 46.88904124417076], [1.343250154437783, 46.887317586789784], [1.3444395211790192, 46.88718766701102], [1.3477837818951428, 46.88682228989012], [1.3489201031188411, 46.88669811791674], [1.35379199748466, 46.88669952754029], [1.3547717100149765, 46.88861081833122], [1.3545435073900889, 46.89066940166327], [1.3543616731052137, 46.892386099792304], [1.3566807234185287, 46.89359987343147], [1.3580714511239473, 46.89533920489582], [1.3627116574015739, 46.89775937126812], [1.3701307076875084, 46.899879818531], [1.3708112354141215, 46.899078518816964], [1.370775904674012, 46.898868242033394], [1.3705014684564096, 46.89699937823682], [1.3719519269416989, 46.89332997992469], [1.376901223745656, 46.88745774614078], [1.3774988747007855, 46.887006598039015], [1.3806657558775735, 46.8871291048999], [1.3807380019859725, 46.88713443269352], [1.380450373110097, 46.885742785555465], [1.380188127929204, 46.884473901350376], [1.37487800482508, 46.880276378930525], [1.3747781579795617, 46.88012439929961], [1.374475614375044, 46.879663891911605], [1.3719885287979345, 46.87796051424621], [1.3719864752492033, 46.87793013792016], [1.3719363726125566, 46.87718913727664], [1.371740810273505, 46.87429659902109], [1.3708918556176295, 46.87239104804599], [1.372741740112533, 46.868537854048235], [1.3749262892716014, 46.86511660734509], [1.3817028276354235, 46.86917073372736], [1.386229791389981, 46.867112055026126], [1.3852863088134018, 46.86602853164178], [1.3839516225069741, 46.864495653112535], [1.3839129949497504, 46.86433047500625], [1.3834792011939816, 46.86237019708965], [1.3838816194918278, 46.86189742285768], [1.384194575468802, 46.86152974456567], [1.3842913401945787, 46.86141605866054], [1.3841008470487148, 46.85962223968264], [1.384186022609004, 46.859443487421466], [1.3846294831355384, 46.85851279158609], [1.3854034482281123, 46.858185809112115], [1.3859452554136455, 46.85795690133733], [1.3858774892035384, 46.85648964030592], [1.3849272027869761, 46.85451794838555], [1.3799719564409094, 46.854248011835836], [1.3777649467048134, 46.854130587118014], [1.3754294176959427, 46.852998059942095], [1.3742918550005225, 46.85256943861372], [1.3727687281986318, 46.85212276323704], [1.3712555744930173, 46.85130207560721], [1.3719732125223565, 46.85035515524439], [1.3718093265768552, 46.85024636919751], [1.3708076089153391, 46.84963921501826], [1.370850051617569, 46.84959887413764], [1.3717897289306102, 46.84870568651997], [1.37181151217796, 46.84868497999138], [1.3722377672718535, 46.848586044661246], [1.3741793059768797, 46.84813538194942], [1.3753443463402169, 46.84884694694198], [1.3771883280053931, 46.847200638451234], [1.3769409418576228, 46.84689969185281], [1.3764093548050673, 46.846253003106035], [1.3764781765356306, 46.846200858693486], [1.3770230891970963, 46.84575700520384], [1.3732045377738873, 46.844934276876955], [1.3716343760820042, 46.84459593264681], [1.3715350834970286, 46.844574536372896], [1.3702800139759181, 46.84353827015009], [1.3675313758190448, 46.8424875596474], [1.36527277134459, 46.83694234252562], [1.365237693929362, 46.83692690832], [1.3611960477019613, 46.835312474282674], [1.3536981522835498, 46.83101065496494], [1.3537181523750275, 46.83098937496856], [1.3618450553419188, 46.822341306923576], [1.3714739270907979, 46.81060271037766], [1.3753785541862211, 46.809415162281084], [1.374733059857345, 46.80651895490303], [1.3747293848495195, 46.806503599886746], [1.3754370973932954, 46.805820746388974], [1.3778057553715233, 46.80353513214857], [1.3801083135145258, 46.80285441035943], [1.3825062772322638, 46.80215465327586], [1.3865468553627822, 46.80214328350548], [1.3931198390764765, 46.80108470370226], [1.4024797938568534, 46.79875654195951], [1.4118212379524735, 46.799424442325886], [1.421220758131244, 46.796682115540044], [1.4222725487850356, 46.79660235357286], [1.4337571135354505, 46.798464198497236], [1.4395628479616045, 46.79933939957219], [1.440123179306584, 46.79919220757885], [1.4407740859850393, 46.799017971518005], [1.4447863671841212, 46.797108455914], [1.4440781893130488, 46.79373799966245], [1.4483558535082848, 46.79281129541539], [1.4485560358828422, 46.79256976555976], [1.4513844013178085, 46.78915693567616], [1.4516660770583192, 46.78881702554703], [1.4528796677694855, 46.786941680876495], [1.4566198007599724, 46.783348987970534], [1.4587282536313155, 46.780853187097854], [1.4658669055811122, 46.77374390543001], [1.466194676573751, 46.77341742840123], [1.4674548512206331, 46.772450590148495], [1.469155602801967, 46.771145651529466], [1.470884724078302, 46.77043718265322], [1.4732946434741432, 46.76909276856605], [1.4744800764927564, 46.7684363855265], [1.475481201266188, 46.76734717514903], [1.4756258677561893, 46.76680037578211], [1.475717097961482, 46.766455535440585], [1.4745363532503537, 46.76628948304894], [1.4740677380992298, 46.76622357562229], [1.473987722461935, 46.76612492415741], [1.4729755475121742, 46.76492604189054], [1.4730244652709827, 46.764860778288075], [1.4734631835911398, 46.76427364229338], [1.475050821108523, 46.764417161406314], [1.4754987318889448, 46.764138022032256], [1.476200405059068, 46.764119914773076], [1.4769036098567427, 46.763553248509986], [1.4753154028074662, 46.7617344033792], [1.47530736108905, 46.76167528106536], [1.4751393078589465, 46.760815367906865], [1.47413439848321, 46.76010780809663], [1.4739628526032922, 46.759121469331944], [1.4744081115570156, 46.758798087799356], [1.4749227554849826, 46.75644291505562], [1.4749167241961703, 46.75642017158491], [1.4744623509355628, 46.75333735562238], [1.474343697859576, 46.7515101734418], [1.474233675796835, 46.749840989377155], [1.4742651931885657, 46.74935662713412], [1.4744027809541393, 46.74724208108466], [1.4742829888143665, 46.74628867219747], [1.4739804011923574, 46.74388025970826], [1.4734030548575883, 46.74369370656403], [1.4704699701149806, 46.74277673342976], [1.4698103713378439, 46.74233447125452], [1.4692377483448131, 46.74228784215687], [1.4692645405981446, 46.74166621529306], [1.4692886450921605, 46.74110689661269], [1.4675967652725945, 46.74014170577661], [1.4674309470509368, 46.7400455115309], [1.4668946654027168, 46.73779213154434], [1.4635349581552692, 46.727497996882164], [1.4406060076021172, 46.73271615658646], [1.4400395614249955, 46.73048309675635], [1.4407817953268296, 46.73015285217141], [1.440808212982705, 46.73014092903945], [1.4433969213745939, 46.71560979621145], [1.4435015310877561, 46.71517439108798], [1.4434819100853202, 46.71513627376389], [1.4415941723809573, 46.71146878062007], [1.4412133325145895, 46.70868021256871], [1.4411968538190003, 46.708559548940755], [1.4411265130373119, 46.708411524222775], [1.4407063467244117, 46.707527317151786], [1.4411464960608116, 46.70582758157483], [1.4395698629056386, 46.70522678780648], [1.4372739001934922, 46.70378716771816], [1.4260190436443334, 46.700879142276484], [1.426074364594486, 46.70077997445627], [1.431453281581397, 46.69113600670407], [1.4338375127533727, 46.68523467459354], [1.4337771854921628, 46.68522508574942], [1.42500448546414, 46.68383019892393], [1.4225593557024003, 46.68389792092322], [1.417017194167149, 46.683112041372475], [1.4127763555086592, 46.682358018977226], [1.4098669189159085, 46.6816776370946], [1.3904796742867815, 46.67577293503841], [1.3842501398624012, 46.67628798247893], [1.3795230188861052, 46.67613866801095], [1.378357312871152, 46.67610181623318], [1.3758438653337206, 46.67602231948522], [1.3556582429958326, 46.67427885272288], [1.3556934776162193, 46.674237543285706], [1.3619957010184343, 46.667777608179115], [1.3619414203173874, 46.66773679309644], [1.360586933345471, 46.666718275739065], [1.3540948572961558, 46.66594009692124], [1.3442377937021877, 46.66528799387109], [1.3388196230323093, 46.66314166105387], [1.338764601221157, 46.66307063139759], [1.3372143309246363, 46.66087728481794], [1.3347162823078498, 46.6584972234602], [1.3344937965614236, 46.65766008331002], [1.3344796543839186, 46.65759989922583], [1.3336098722881387, 46.65643512435968], [1.3337162409026175, 46.656107640281995], [1.3338138805875006, 46.65580085484182], [1.3326138697084564, 46.655529379071005], [1.3320178141612387, 46.65515343521391], [1.3322504149377823, 46.65463182985556], [1.3301287891711022, 46.652959154538344], [1.3298117260966316, 46.65270917284608], [1.3297184522240422, 46.65269199749577], [1.3253212519088724, 46.65188219579612], [1.3232118531115191, 46.65101052007759], [1.3186994043352953, 46.6497044117225], [1.3184408763830586, 46.64930230137177], [1.3177696210667855, 46.64825820869978], [1.3168202446436164, 46.646781439724165], [1.3155205369377028, 46.645064787803655], [1.3126879143865915, 46.64549828098145], [1.3108799515710348, 46.64548204442983], [1.309238681037945, 46.645053391044875], [1.3043532239079825, 46.64341493583061], [1.30032097855004, 46.64191358568837], [1.2963187306343726, 46.64224786522818], [1.2946360944790394, 46.642343179809025], [1.2906757143438266, 46.642108992521976], [1.2890058926560553, 46.64146114502149], [1.2844590213364544, 46.64054924101967], [1.2832504468178136, 46.64044333843839], [1.2820838757252222, 46.64034110476415], [1.2727184178654265, 46.639519905871595], [1.262945637804663, 46.63852026155082], [1.2623509791376983, 46.63897209152995], [1.2591582731931528, 46.6414315040689], [1.256638657823017, 46.64228945135827], [1.2537778066124154, 46.641870033089255], [1.2511181735338577, 46.63956836245321], [1.2459277527379968, 46.64164050142537], [1.2432977577756086, 46.64195004262272], [1.242677293205492, 46.641119008743516], [1.243358295242606, 46.63392111982472], [1.231876986885103, 46.63298901598634], [1.231077267093278, 46.63667031735077], [1.2295768676680863, 46.638261848285445], [1.2256268100737866, 46.63863914435126], [1.224494105467436, 46.637691174012765], [1.2238570193696254, 46.63715797468592], [1.2235398404124627, 46.63716304969789], [1.2229904379712373, 46.637171838448104], [1.2217786124495675, 46.63719121575911], [1.2212370639788652, 46.63719987127653], [1.2211620501610758, 46.63659904074222], [1.2207847981659148, 46.63357720748688], [1.2207177056922973, 46.63303974655465], [1.22044701904268, 46.63087126255961]]]}}