{"type": "Feature", "properties": {"slug": "fuente-piedra", "name": "Laguna de Fuente de Piedra", "natura_codes": ["ES0000033"], "natura_names": ["Laguna de Fuente de Piedra"], "sea_clipped": false}, "geometry": {"type": "Polygon", "coordinates": [[[-4.754233240994837, 37.0530506991072], [-4.755256352034862, 37.05290488418363], [-4.756279719094727, 37.05277032475444], [-4.757250830256202, 37.0526252613513], [-4.75774157899761, 37.052617996703034], [-4.758918470834487, 37.05269520425706], [-4.7598129817534, 37.05277883971089], [-4.761422353110758, 37.05289693059516], [-4.762689052221526, 37.05299755410983], [-4.7631735199424625, 37.053037679020015], [-4.764274422391135, 37.0530348435787], [-4.7650459386762885, 37.052951270062664], [-4.7660988827668875, 37.05280491796903], [-4.7673743161971665, 37.052630458374075], [-4.768516126127264, 37.052482762850005], [-4.770702681224351, 37.05213921304921], [-4.772318525841661, 37.051901037806196], [-4.773445559383635, 37.051753515078445], [-4.774174730882908, 37.0517538871692], [-4.774695817528092, 37.051782150288446], [-4.775689082941118, 37.051956574552875], [-4.777111709822266, 37.05235440126833], [-4.7782498294731885, 37.05268211313294], [-4.779537483584581, 37.053032360147824], [-4.7804802052881525, 37.05326834020493], [-4.781084926882903, 37.05335616113907], [-4.781769145787056, 37.05335715909551], [-4.782466784623215, 37.05328584747618], [-4.783178965387187, 37.05320530037348], [-4.784481651008245, 37.0529356088005], [-4.785829467090882, 37.05268775894936], [-4.786533098588311, 37.05255774662397], [-4.7878368702725265, 37.052335322266465], [-4.789289047234964, 37.052088114262176], [-4.7912145680801785, 37.05173685559143], [-4.792888881344404, 37.05144794550706], [-4.795635934873131, 37.05091746269948], [-4.796939650861793, 37.05069493101098], [-4.798257933032824, 37.05044963120333], [-4.798991646414189, 37.05033035210732], [-4.799145705688774, 37.050313173235004], [-4.799599718724946, 37.0502625456898], [-4.80026830604484, 37.05022761865044], [-4.800983523114468, 37.05027760454711], [-4.801604599437308, 37.050413759309315], [-4.80179100165539, 37.05045462189338], [-4.803544973027399, 37.0510250976909], [-4.804459351985448, 37.051308630885735], [-4.805785420753353, 37.051718834635096], [-4.806085194851852, 37.05180891069644], [-4.8071308329442575, 37.051995785920624], [-4.8080699353355225, 37.05207611779274], [-4.808701616270298, 37.052055224158444], [-4.809370210776702, 37.052020245607785], [-4.809486978288882, 37.05199702621917], [-4.809527370137338, 37.05267674333379], [-4.809277804676675, 37.05344366222439], [-4.808969316919897, 37.05423532555587], [-4.808744391349188, 37.05478724226676], [-4.8084784046851174, 37.05486283958809], [-4.808302212718544, 37.05496091404032], [-4.80830786851157, 37.05519930048678], [-4.808236740805691, 37.05596349691327], [-4.808567875090796, 37.05612538164991], [-4.809939456104246, 37.05624755076276], [-4.810714477615607, 37.05630726741009], [-4.811346450502839, 37.056607635002734], [-4.811853786635951, 37.056671431195774], [-4.812721445114359, 37.05687280429065], [-4.813466162857969, 37.05690911831973], [-4.8143904780813465, 37.05699037551187], [-4.815553308589091, 37.057091825188], [-4.816118432446118, 37.05708317522371], [-4.817012438511828, 37.05714102945796], [-4.817875564989613, 37.05715165515585], [-4.819095044157486, 37.05713296447914], [-4.819508034727905, 37.056983547866466], [-4.820221874680217, 37.05697259954518], [-4.821519750721248, 37.05649958424541], [-4.822410333307387, 37.05641436712314], [-4.822977160370211, 37.05647719997415], [-4.823868309793317, 37.056415810947335], [-4.8243974067158515, 37.05614535725321], [-4.825165582166466, 37.05591891730908], [-4.826323835757833, 37.055829552988946], [-4.826776263267527, 37.05608490780976], [-4.8274351784267395, 37.05626553838341], [-4.828545389218403, 37.05665383581105], [-4.829323856667196, 37.05685646064202], [-4.830035973650808, 37.056773937994855], [-4.831192513256611, 37.05661301025885], [-4.831961818787808, 37.056434204289886], [-4.832645903842994, 37.05642363942746], [-4.8335725223467625, 37.056600100467364], [-4.834499716670638, 37.05680039268116], [-4.834945860464902, 37.05679349404656], [-4.836049221602531, 37.05689566015833], [-4.83676362659515, 37.05690845017905], [-4.838182664706761, 37.05652876608746], [-4.838740298410958, 37.0562101130414], [-4.843396382411215, 37.05434932920148], [-4.843124094065439, 37.0541627831016], [-4.842326598502295, 37.0531735929624], [-4.8422310366206975, 37.05291275819238], [-4.842598650591134, 37.052120098146546], [-4.8431545047327464, 37.05172991132937], [-4.844526359732377, 37.050635477368836], [-4.8449288741499466, 37.05005689061145], [-4.8449206958876045, 37.04971910491868], [-4.844920692294349, 37.049718929981175], [-4.844915023026568, 37.04948477645385], [-4.84495566460665, 37.049342826266425], [-4.846443148953039, 37.04963752089414], [-4.847369843813594, 37.049814625051106], [-4.848072291331483, 37.04994564079406], [-4.848937256660692, 37.050040323956004], [-4.849226352485428, 37.05006172144664], [-4.827859011662625, 37.091784214335256], [-4.8235509718343685, 37.098443579366105], [-4.822369799525155, 37.10005479317144], [-4.822199414268587, 37.1003841352724], [-4.8219296025780425, 37.10074654914083], [-4.821564110428285, 37.101401102619825], [-4.820950431731842, 37.1026317965], [-4.8207256687561735, 37.10318729648802], [-4.820617934702474, 37.103666641988944], [-4.82046134307707, 37.104088152469636], [-4.820071838959763, 37.10472504484257], [-4.819136251676207, 37.105951656975655], [-4.818406696596306, 37.10681007247965], [-4.81773236095692, 37.107507656374395], [-4.81712972704689, 37.108204138462014], [-4.816758537781607, 37.108608653600896], [-4.816043543494125, 37.10959301503759], [-4.815416972176707, 37.110289848318516], [-4.81509601849874, 37.11081075119325], [-4.81481972456514, 37.11121380246489], [-4.814009412737807, 37.1121995978747], [-4.813455433380203, 37.11293361202683], [-4.812906086634498, 37.11387710246746], [-4.812653247712945, 37.11426176455454], [-4.812496162014172, 37.114665240874494], [-4.812366150639718, 37.115201244145524], [-4.812352229447766, 37.1156205564727], [-4.8122236895137585, 37.116233147137514], [-4.812037368144048, 37.1167677560891], [-4.81171085569111, 37.11769206313209], [-4.811418823273695, 37.11844009160348], [-4.811213425280624, 37.11882402494994], [-4.810827850394355, 37.11963206429446], [-4.810275207729899, 37.120440400869626], [-4.809648419020183, 37.121119177854865], [-4.809205457956969, 37.1215270134309], [-4.808749430897904, 37.12203644309304], [-4.80807750543843, 37.123184572611635], [-4.807412413463342, 37.12428077077888], [-4.806922307017359, 37.12479296596182], [-4.804434657298272, 37.128298577185554], [-4.803466178200592, 37.12965849370589], [-4.802058943951808, 37.13211338333863], [-4.800921701056621, 37.133875457226715], [-4.800267622426881, 37.134945873083346], [-4.79941093956461, 37.13650234296106], [-4.798338775120181, 37.1380079998937], [-4.797959138996291, 37.138586078035964], [-4.797616703006603, 37.13921992391871], [-4.797203561519237, 37.13988413305477], [-4.796925793450234, 37.140233087804276], [-4.796548800169904, 37.1409237842662], [-4.79560630304514, 37.14254687192454], [-4.79178425807382, 37.14803579902743], [-4.7899396341131855, 37.15066295918393], [-4.788806478552559, 37.15214477896094], [-4.787210896334778, 37.15422829935624], [-4.786483506194716, 37.15521266178125], [-4.7856437862199686, 37.15607478287421], [-4.785575727159108, 37.15614340604648], [-4.785051084083716, 37.1566380059564], [-4.783784497262352, 37.157515556433914], [-4.782584864574053, 37.15842860394211], [-4.781394764807551, 37.159268463317204], [-4.7807982565094305, 37.15976187369111], [-4.780386924229053, 37.16051387339125], [-4.78001880810034, 37.16157842276893], [-4.779617087793472, 37.16275613839913], [-4.779629876209885, 37.164817655511875], [-4.779654699356112, 37.16587629428269], [-4.7794934095417885, 37.16662227011214], [-4.778940574637854, 37.16659451941654], [-4.778630647779993, 37.16643468892741], [-4.777948963921581, 37.166330006084024], [-4.777556960691149, 37.1663922152064], [-4.777014132121151, 37.16673157694331], [-4.777051018743366, 37.166773835002786], [-4.7764845078875195, 37.1671541063654], [-4.7760070703820015, 37.167506001239], [-4.775558248709856, 37.167877744702636], [-4.775027672262036, 37.168410688106576], [-4.774609322342633, 37.16885182044299], [-4.773815002324028, 37.169093538719835], [-4.772790012008442, 37.1692688554981], [-4.7711926547196635, 37.169408102893954], [-4.7700424608130225, 37.16949919656651], [-4.768163146611109, 37.16971426916717], [-4.765357354042574, 37.170044511486914], [-4.763685594688697, 37.170317257306415], [-4.762321381657207, 37.170481758865165], [-4.760580555332726, 37.17056554636277], [-4.759857369308213, 37.17057531865378], [-4.7593653431624645, 37.170117855683095], [-4.758558974939255, 37.16940204200437], [-4.758071498760439, 37.16894511596114], [-4.757538551658579, 37.16843929355697], [-4.7571513355502795, 37.16804806990155], [-4.755763348604805, 37.16644674031255], [-4.755103108430542, 37.16560931730686], [-4.754382689217088, 37.16472544803068], [-4.753408586665712, 37.163523107444014], [-4.752518498152944, 37.16239161957563], [-4.751812396288497, 37.161484983567725], [-4.750730146458388, 37.160106209293446], [-4.749809147815028, 37.15892783668165], [-4.749127713688243, 37.15812672262149], [-4.74856007544674, 37.15740729443191], [-4.74753719976532, 37.156325042474506], [-4.746745351910361, 37.15558637659326], [-4.746114755242149, 37.155034606065726], [-4.7443524771487136, 37.1535463590506], [-4.742864039689838, 37.15230417069439], [-4.741442009290028, 37.15102493405297], [-4.740255152441683, 37.149933754467526], [-4.7391582412078135, 37.14886603025709], [-4.738413266546067, 37.14818647536334], [-4.7385669458332815, 37.147443874853835], [-4.739008881020477, 37.14592319330639], [-4.739330167075103, 37.14466566132096], [-4.739454060922457, 37.144222200982114], [-4.739633884777728, 37.14362469885856], [-4.739755608295326, 37.143086634069036], [-4.73983183933035, 37.14251318325256], [-4.739884776151738, 37.14189050224149], [-4.7398705989399135, 37.14094884256101], [-4.739790426097427, 37.14004420299893], [-4.739483590342477, 37.13901219924106], [-4.738923712646699, 37.137314682275445], [-4.73790390381367, 37.134087170692474], [-4.737416375532557, 37.13262743268351], [-4.737263340337395, 37.13179596183577], [-4.7372324544612905, 37.13109113831763], [-4.737250655227248, 37.130579377514394], [-4.737491909474898, 37.12908417189728], [-4.737725428329642, 37.128235770195175], [-4.737954867036369, 37.127193645551536], [-4.738840226817449, 37.12357992484722], [-4.73922118346484, 37.12201281466335], [-4.739556903649428, 37.120421581820196], [-4.740066949101452, 37.118302773917605], [-4.740318285141527, 37.11692909196406], [-4.7407079985662905, 37.115409168140594], [-4.741143439832303, 37.11361367196668], [-4.741502063463387, 37.112058150472556], [-4.741698843917937, 37.110899328610884], [-4.741762438351856, 37.11042069870113], [-4.741740296676732, 37.1100988048065], [-4.741716301777195, 37.10937359917051], [-4.741577728559773, 37.10852839736969], [-4.741413756376016, 37.107863832073576], [-4.741159266350966, 37.10716228682393], [-4.740923507996225, 37.10661819845679], [-4.740369525943663, 37.105506440894544], [-4.739648246144158, 37.103905919199], [-4.738623613358049, 37.10173975865011], [-4.738028319582203, 37.10044833312497], [-4.737301711874746, 37.09893349877968], [-4.737045739629485, 37.09814859572794], [-4.736944810314064, 37.09731635495894], [-4.7369615297581085, 37.09675504112884], [-4.737077756484535, 37.095978207168], [-4.737354279488528, 37.09504580129244], [-4.737531806351621, 37.09435144025661], [-4.737631027071396, 37.09380018403713], [-4.73768840875679, 37.0930489965517], [-4.737664181193571, 37.091988051599984], [-4.737636283114113, 37.09110516867361], [-4.737626911889058, 37.090032738457005], [-4.7375736355045, 37.089008269213785], [-4.737540358313122, 37.08819756989419], [-4.7374824825543245, 37.08664815077138], [-4.7374426791024, 37.085551378456685], [-4.737339580355556, 37.084946752153286], [-4.737182772236186, 37.08426855248343], [-4.736895904233351, 37.0834367798812], [-4.736551252998187, 37.08269147509669], [-4.736001669995579, 37.08174637217589], [-4.7354341377552664, 37.081015591831736], [-4.734839252712866, 37.080379847493035], [-4.733640189556461, 37.07934733351403], [-4.732639358532112, 37.07852822878878], [-4.7300702046673075, 37.07647915395964], [-4.728395842894072, 37.075144808820106], [-4.726697066708057, 37.07373868838065], [-4.726151788432272, 37.07331623930217], [-4.725375574856529, 37.07255238825572], [-4.724826842558471, 37.071976758203256], [-4.724389808579506, 37.07139724830215], [-4.723927385515641, 37.070689667893916], [-4.723615184123462, 37.07004975643067], [-4.723219162728781, 37.068982931688026], [-4.722995712191738, 37.06831919578531], [-4.722393612779316, 37.066360794852194], [-4.721978446489293, 37.06511397792721], [-4.721046703096817, 37.06240774352859], [-4.720759164052451, 37.06149481287964], [-4.720899858192253, 37.061492774170105], [-4.721182893083773, 37.06151345660374], [-4.721750335492542, 37.06159986656358], [-4.722392726142114, 37.06172123976735], [-4.72288543231253, 37.06179746243569], [-4.723450990954154, 37.06180051905411], [-4.723925939228015, 37.06175982171872], [-4.724280707289923, 37.06165777685186], [-4.725091169135872, 37.061301244903255], [-4.726061420609626, 37.060784652612256], [-4.726943545557392, 37.06031890706801], [-4.728098040597602, 37.05972976522107], [-4.728509508523607, 37.059509710334254], [-4.728936593660818, 37.059311959395366], [-4.729320394374386, 37.05918919591522], [-4.7299998665805765, 37.0589629779652], [-4.731269781660053, 37.058552388985355], [-4.732982932687256, 37.05799110352873], [-4.736357835836038, 37.0569142799215], [-4.738114705173183, 37.056316230745814], [-4.7391338411680515, 37.055992602970335], [-4.7405011282344764, 37.05560302177282], [-4.740930626246525, 37.055513351680226], [-4.741820210804422, 37.05538087733059], [-4.742918020353555, 37.055256607008296], [-4.744802902313644, 37.055050907393785], [-4.7464577410007935, 37.05488236387145], [-4.747214599475441, 37.05480137326285], [-4.748697517685217, 37.05459927489205], [-4.749296994915346, 37.05445975169902], [-4.7506124177488145, 37.054095605258745], [-4.752489265176965, 37.053542892036674], [-4.754233240994837, 37.0530506991072]]]}}