{"type": "Feature", "properties": {"slug": "gallocanta", "name": "Laguna de Gallocanta", "natura_codes": ["ES2430043"], "natura_names": ["Laguna de Gallocanta"], "sea_clipped": false}, "geometry": {"type": "Polygon", "coordinates": [[[-1.4715143676339602, 40.92669400585035], [-1.4721713172793565, 40.92778816163398], [-1.4721342905199604, 40.92794530846133], [-1.4720583334711186, 40.928052396244496], [-1.4720861228544282, 40.92829597819103], [-1.4727177525852022, 40.92958796718256], [-1.4728518000902147, 40.92989150759749], [-1.4733578022251372, 40.93112778351769], [-1.4735352904606551, 40.93157602177971], [-1.4737319747954816, 40.93202901987782], [-1.4748180442622152, 40.932480274782655], [-1.47499910689425, 40.93245114256592], [-1.4750791539725767, 40.93245670487527], [-1.4751862106965656, 40.93241758613996], [-1.4753083357611338, 40.93240118559602], [-1.4753749197882942, 40.932411073700656], [-1.4754414005092218, 40.932425464724766], [-1.4755555673986702, 40.93239995043113], [-1.4757790871059888, 40.932267788336404], [-1.4760833941034088, 40.93214119645719], [-1.4781898473249464, 40.93121869062541], [-1.4786104969314517, 40.93100354989056], [-1.4793801932298525, 40.930684916678935], [-1.4794533322636327, 40.930667866208246], [-1.4799002782534718, 40.930471082704614], [-1.4803721435092945, 40.93028813833456], [-1.4809811141353157, 40.92998539176925], [-1.4812175597012696, 40.929871404862254], [-1.4815288349303748, 40.9297313791652], [-1.48187933509634, 40.929596372090124], [-1.482406188027325, 40.92937811222916], [-1.4863629344772122, 40.93268647480551], [-1.4861726245876559, 40.9328281019799], [-1.4860151741728607, 40.932961152672135], [-1.4857913625130856, 40.93310684304249], [-1.4854394106696105, 40.93330489727762], [-1.4853715878656528, 40.93334904633702], [-1.485066664623924, 40.933795432430074], [-1.4849161159654618, 40.93395109162969], [-1.4848896911230431, 40.93406784647734], [-1.4848381026729307, 40.93444099559844], [-1.4848857951296648, 40.93472537069645], [-1.4849820415275163, 40.935159012930306], [-1.4849832012525692, 40.935303153887], [-1.485048207838093, 40.935479662491744], [-1.4850422376347168, 40.935740811840226], [-1.4850076857339576, 40.93637541187579], [-1.484944457812653, 40.937095211259624], [-1.484860800405192, 40.937247244323906], [-1.4847378893147634, 40.937362731808285], [-1.4846467282797473, 40.937550697975986], [-1.484630692453594, 40.93766758964823], [-1.484847597865484, 40.9384090854144], [-1.48491242838121, 40.938788268522856], [-1.4850988350908778, 40.939110496519035], [-1.4854501949445988, 40.93984925360299], [-1.4854651042833587, 40.93994403224919], [-1.4855914855657413, 40.94039158233], [-1.4856978999942723, 40.94064069533459], [-1.485819080929491, 40.94092603581968], [-1.486045313548944, 40.94132535191389], [-1.4861536288126667, 40.941556475276954], [-1.4862607987243566, 40.94196774046071], [-1.4862927670703634, 40.942193355728804], [-1.4862769980438815, 40.94268858155921], [-1.4866493910516423, 40.94328798902894], [-1.4869856628018476, 40.94377882596432], [-1.4875468331733164, 40.94469598256966], [-1.487605415906263, 40.94476430904327], [-1.487817957302487, 40.945113900203175], [-1.488787288901379, 40.94630213302494], [-1.4890286401670818, 40.94659354687594], [-1.489273982647589, 40.946970588430275], [-1.4897238894845948, 40.94749443382796], [-1.4902142726116843, 40.94796926484861], [-1.490936990613943, 40.94883897663502], [-1.49109878258651, 40.949070793582], [-1.4912424169122465, 40.949545584770796], [-1.491424836000332, 40.94998034826155], [-1.491569476439184, 40.95037858578789], [-1.4916727323912204, 40.95060513236395], [-1.4918064906387007, 40.9511878882338], [-1.4918283951585916, 40.95139985924596], [-1.4918051916747976, 40.95183193127916], [-1.491806540944338, 40.95206615303574], [-1.4918295746465473, 40.95222859446972], [-1.4919355192562296, 40.95250021536782], [-1.4920197848231258, 40.952713002416786], [-1.4928491202731926, 40.9536651661091], [-1.4933253378665858, 40.954112775174885], [-1.4938010254539247, 40.954681980271445], [-1.494426095686493, 40.955442299919525], [-1.494745304836196, 40.9558067815323], [-1.495278663366461, 40.956192074308426], [-1.4955370987922303, 40.95629002959093], [-1.4957698585705599, 40.95637413690845], [-1.496042782923547, 40.95642273723391], [-1.49636552963882, 40.95656656856074], [-1.4973867515217825, 40.95705279673425], [-1.4977043077713597, 40.95719655613388], [-1.497989784283823, 40.957281347486834], [-1.498083430957241, 40.957278063999894], [-1.498246476079626, 40.95719461317554], [-1.4983552207380277, 40.95711495861737], [-1.4986522801277655, 40.95698371162468], [-1.4988334011502786, 40.95695454272648], [-1.4990336760513034, 40.95699768617901], [-1.499483749076639, 40.95719271024312], [-1.4997166184494144, 40.957272306364494], [-1.4999289056224268, 40.95734262858408], [-1.5004907128994376, 40.957358945596944], [-1.5008707559601466, 40.95739992128075], [-1.501418996879725, 40.957425064327616], [-1.5016405151406107, 40.957382904163744], [-1.501795928176322, 40.95730835823089], [-1.501971181403428, 40.95724307653723], [-1.5020934169607725, 40.95719061871347], [-1.502361604497265, 40.95715356748827], [-1.5025495078001971, 40.95711997748018], [-1.5027830634858552, 40.95713652249308], [-1.5031031053738009, 40.957203734360505], [-1.5032909062687974, 40.95717464561161], [-1.5035753470237072, 40.95694413388521], [-1.5042344993381864, 40.956398707085], [-1.504609484883837, 40.95603875515305], [-1.5047280544165271, 40.955819601662554], [-1.5047503443136727, 40.95562171805766], [-1.5050741375662307, 40.95519354057895], [-1.5050956126914423, 40.9550316790346], [-1.5051217339032754, 40.95463116900615], [-1.505171733233656, 40.954357078547055], [-1.5051301690837875, 40.95425745211863], [-1.5051412462095628, 40.95376666864634], [-1.505550086563325, 40.95345219284262], [-1.5060177989075991, 40.95326008183745], [-1.506097405811448, 40.95322057853014], [-1.5061862950071045, 40.95313165224233], [-1.5062409305427051, 40.95304678567896], [-1.5063342187883146, 40.952795774348], [-1.5063744893641966, 40.9525575882541], [-1.5063797705597657, 40.95232345304807], [-1.5067356875668954, 40.95201729372336], [-1.5070409530667517, 40.951651925468305], [-1.507051789444005, 40.951566491841405], [-1.507048768409733, 40.951305225270396], [-1.5070641601438008, 40.95121534586807], [-1.5069385927350551, 40.950790351023706], [-1.507005452545024, 40.9505254854598], [-1.5070788853279222, 40.95036429569732], [-1.5070381323567659, 40.95022864959639], [-1.5068677417102818, 40.95004628644328], [-1.5067906770386854, 40.94997322556345], [-1.5067410172714746, 40.94983746399547], [-1.5067140453550567, 40.949485809460555], [-1.50690105393598, 40.94932608947918], [-1.5071765717251877, 40.949126981412086], [-1.507363172470962, 40.94898527316077], [-1.5073996862923154, 40.94891368207839], [-1.5074476428537629, 40.94872964280516], [-1.5074693138116753, 40.948558774663276], [-1.5075336331860194, 40.94840647316782], [-1.507799627934897, 40.948234263474994], [-1.5078018593500535, 40.948135205889585], [-1.5077368491712748, 40.9479226795591], [-1.5076598878059446, 40.94784511785254], [-1.5074009951376863, 40.94770214347428], [-1.5072908706670096, 40.94754758464782], [-1.5072598374671808, 40.94737603426047], [-1.5073266110388954, 40.94671932533939], [-1.5074602516070894, 40.946225623834984], [-1.5075180258562482, 40.94600117582979], [-1.5074538286528092, 40.9457526285779], [-1.507344519852397, 40.945562048995896], [-1.5073557272338847, 40.94542707562899], [-1.507403378368119, 40.94525654295594], [-1.507451940394077, 40.945045487917696], [-1.507525569009709, 40.94487529149063], [-1.5076356898871306, 40.94502985114352], [-1.5075356741583248, 40.94521772017574], [-1.5075035773532328, 40.94545601349261], [-1.507500838389916, 40.94557758454361], [-1.5076533345959187, 40.9457957467818], [-1.5076584891290306, 40.94596245933686], [-1.5076283515495748, 40.94614672887734], [-1.5075044325493696, 40.94660452526711], [-1.5074983464633345, 40.94687468267913], [-1.5074664499825285, 40.947103969569746], [-1.5074157867971596, 40.94744110723182], [-1.5074304266413234, 40.947549391510336], [-1.5075251009874546, 40.94763168817604], [-1.507861427534883, 40.947798183045926], [-1.5079112921179654, 40.94792493829398], [-1.507994424010991, 40.94812418636436], [-1.5079741741878536, 40.948232018999164], [-1.5077956717543797, 40.94840986565558], [-1.5076720743510688, 40.94845780895253], [-1.5076077540784274, 40.94861010965108], [-1.5076029858209008, 40.94882173205145], [-1.507484034504211, 40.949058899638196], [-1.5073874629162436, 40.94909368110631], [-1.506897197468474, 40.94949718971328], [-1.5068563196314544, 40.949762391180684], [-1.5068894854317592, 40.94983938749438], [-1.5070169213362674, 40.95001669042918], [-1.507206446098294, 40.95014075124638], [-1.5072198678269269, 40.95030306647126], [-1.507216924946069, 40.95043364148439], [-1.5071699807859502, 40.95057265579419], [-1.5071595818882169, 40.95067160659489], [-1.5071294074778134, 40.95082434997914], [-1.507186151359368, 40.95104127295782], [-1.5072493352632148, 40.951334845810244], [-1.5072635690688905, 40.95146113969684], [-1.5072442624768054, 40.95155997721922], [-1.5071433924501598, 40.95175233877507], [-1.5070434665528971, 40.95193570608806], [-1.5069099697151722, 40.95206008624648], [-1.5065519937693952, 40.952424771072685], [-1.50652859265624, 40.952672183260326], [-1.5064888269335603, 40.952887855887894], [-1.5064338159022066, 40.95302226106791], [-1.5063337534610182, 40.953178601575935], [-1.5061901245251643, 40.95335689760947], [-1.5058809136245894, 40.953501519220296], [-1.5056076407252952, 40.95363309471865], [-1.50532329339515, 40.95382758054181], [-1.5053277301743142, 40.95402581010149], [-1.5053617709336915, 40.95412984266089], [-1.5052725026489597, 40.95426830576003], [-1.5052944314233725, 40.954349661201235], [-1.5052404678276343, 40.954799353161015], [-1.5052806476736424, 40.955322329121174], [-1.5050650924296565, 40.95559427243226], [-1.5049005884432523, 40.95590741375544], [-1.5047202255988228, 40.95616630122012], [-1.5044876616532268, 40.95640199197248], [-1.5033933492454603, 40.957275060694684], [-1.5036108053246047, 40.95731391505496], [-1.5038473020945262, 40.95729896976832], [-1.5042259159356202, 40.95717326912285], [-1.5046659152533717, 40.957025844228774], [-1.50510388617521, 40.956869384612034], [-1.5053712131256498, 40.9566071193713], [-1.505459193226277, 40.95655871659996], [-1.5058344850974714, 40.95651403896593], [-1.5063966939213846, 40.95651231715049], [-1.5071391056896442, 40.95652193435052], [-1.507568694431533, 40.95647344942855], [-1.5077299671778777, 40.95643500230108], [-1.5081939470221122, 40.95631039429601], [-1.5088744055784822, 40.95610300955529], [-1.5112793977150103, 40.95506216086451], [-1.5119829142280776, 40.95471993791306], [-1.5125457069569377, 40.95439391152854], [-1.5127628531173165, 40.95424808289686], [-1.5129053870068083, 40.954150836266464], [-1.5130415446544363, 40.954039994241406], [-1.51317793766067, 40.95395167558323], [-1.5132582165043476, 40.95394820671642], [-1.5134443887537061, 40.95399114317419], [-1.5137176212288312, 40.95402619409846], [-1.5139855213044524, 40.95403415151864], [-1.5141865714515728, 40.9540097195422], [-1.5145519153792761, 40.95381175113436], [-1.514761600132897, 40.95373338289255], [-1.5151170293548695, 40.95367941002952], [-1.5158212411639567, 40.953602903959876], [-1.5157510971132993, 40.953750630942395], [-1.5156859396107962, 40.954272246802375], [-1.5156565907521589, 40.954388971157066], [-1.5155937311401646, 40.954509767949965], [-1.5154710410352885, 40.9546162821359], [-1.515394278197617, 40.95472789117907], [-1.5153985371103895, 40.95483604003299], [-1.5154235480045435, 40.954912929343756], [-1.5156238507533117, 40.955253302580616], [-1.5156871352684664, 40.95541175449311], [-1.516018716016229, 40.95582588113066], [-1.5162399396296664, 40.95609445944668], [-1.5168972818388278, 40.95691812839588], [-1.5172091724139112, 40.95735001370857], [-1.5173185288250028, 40.95754058368997], [-1.5174621020653034, 40.95769556347763], [-1.5176177297983877, 40.95790924962109], [-1.5176809190920835, 40.958072203793336], [-1.517909178310855, 40.95835888477], [-1.518232797290276, 40.9588314532408], [-1.518543999755816, 40.959294853338506], [-1.5190110410585587, 40.960228662931605], [-1.5194269565435272, 40.96079249144383], [-1.5196677292941998, 40.961151393120225], [-1.519723665590297, 40.96127371742782], [-1.5204324462309555, 40.96219260843592], [-1.5206923944196702, 40.96252473064523], [-1.5210237793346986, 40.962983879385234], [-1.5212780582556644, 40.96327088837654], [-1.5214877726536895, 40.96345823880686], [-1.5216515552929248, 40.963640495721236], [-1.5308302093877024, 40.96065014546202], [-1.5318268497712568, 40.960383601810825], [-1.5323447716516658, 40.9602370639404], [-1.5329439165051686, 40.96007804563264], [-1.5325473408499444, 40.95923977179063], [-1.5325042585472144, 40.95907257786254], [-1.5324755385092783, 40.9588605283702], [-1.5325416634973217, 40.958591134347394], [-1.5326122755702336, 40.958420884643644], [-1.5327564345121085, 40.957981334999985], [-1.532867733979155, 40.957784577915575], [-1.5330326898181663, 40.95757949691502], [-1.5334128568464083, 40.95701233710432], [-1.5336614233804648, 40.956686712128274], [-1.5339138338056348, 40.956455718380305], [-1.5343294393718043, 40.95613221749964], [-1.5345942124119296, 40.955946418851504], [-1.5348646681945264, 40.95580573065735], [-1.5360731304237296, 40.955325652054086], [-1.536160090936485, 40.95532225313739], [-1.5362602180563976, 40.95532802790352], [-1.536366029715376, 40.955378915294624], [-1.5364962800416908, 40.95553370205748], [-1.5366931494294525, 40.955698343225336], [-1.5373351762613325, 40.95631902510819], [-1.538685285742893, 40.957597248691926], [-1.5398612882476104, 40.95858950281246], [-1.540353903688187, 40.958983080113484], [-1.5417458072883063, 40.960189732952124], [-1.5418368793901431, 40.960303483700336], [-1.5419788203915508, 40.96087277448291], [-1.5425563194399265, 40.962573553011765], [-1.5439033018859574, 40.96218071956948], [-1.5450346284766938, 40.96426680975269], [-1.5439440566537745, 40.967621974148706], [-1.5410264867144368, 40.97045407669206], [-1.5395601136755692, 40.97278204744362], [-1.537878996571428, 40.97480551219636], [-1.536568301571282, 40.97606348507889], [-1.533599286013937, 40.97833625536056], [-1.5322832909536497, 40.97985984232208], [-1.5310020139824176, 40.98175767961416], [-1.5259822641073684, 40.980752274292364], [-1.5248296456477948, 40.981602278233794], [-1.5222710344111587, 40.98423130781948], [-1.5234859339676958, 40.985787212439945], [-1.5244137660954433, 40.985659474753206], [-1.5282647386155634, 40.98751928302713], [-1.529970031180658, 40.98841480378447], [-1.530574662045568, 40.989057564761175], [-1.531223885281196, 40.98939912821377], [-1.532404054172218, 40.98978798680474], [-1.5327073137340559, 40.99031880466048], [-1.5334602375877497, 40.99104450767921], [-1.5331985592437922, 40.99165370856251], [-1.53372674527467, 40.99169195616471], [-1.5345318235171141, 40.99160761450384], [-1.5356857139911446, 40.99160876922889], [-1.5366275939733023, 40.99168829061223], [-1.5379888174115188, 40.99182266898138], [-1.538755544777879, 40.9919269742017], [-1.5404321352713461, 40.99197974750444], [-1.5420035438248003, 40.99208521126126], [-1.5435779329883903, 40.99205557443026], [-1.5444003864450604, 40.99202543040516], [-1.5463665461754004, 40.99246010120816], [-1.5467637659226765, 40.99267679444585], [-1.5483718841302516, 40.99348073907921], [-1.548744463089278, 40.993872767797946], [-1.5491584031789292, 40.994310354814246], [-1.5495374805507254, 40.99471146815716], [-1.5494802848165972, 40.995557483097464], [-1.5495035466908689, 40.99608923557882], [-1.5494112447954391, 40.99629975788885], [-1.5493877403760177, 40.99659221546564], [-1.5492131635803261, 40.9965900180605], [-1.5492195847379786, 40.99629734486828], [-1.5492637845449313, 40.99587453470154], [-1.5492780075708086, 40.99522615230374], [-1.549235141762079, 40.99477522181427], [-1.5489977565583612, 40.99445245595943], [-1.5485546948838047, 40.9939199207114], [-1.547623689906509, 40.99330917314916], [-1.5475541603035328, 40.99329478522437], [-1.5463272790177098, 40.99265777806392], [-1.544501061537269, 40.992211362074535], [-1.5440105499510945, 40.992250205356406], [-1.5428750677538854, 40.99222234237095], [-1.5419119686664222, 40.99229573618734], [-1.5409182253496734, 40.99217506619477], [-1.5395205312092308, 40.99214385023048], [-1.5386464300135732, 40.99212376305676], [-1.5372335013442213, 40.99197522491321], [-1.536114515808876, 40.99197452923423], [-1.5348221653051575, 40.99191757100108], [-1.5337337036248533, 40.99211541153707], [-1.5334579271208486, 40.992355112683086], [-1.533788675130335, 40.99325559811537], [-1.5337742014745006, 40.99390847895943], [-1.5314810450992533, 40.99441524530225], [-1.5301367692771772, 40.99428551127094], [-1.5296877760268195, 40.99436085414697], [-1.5291358358448939, 40.99458801387839], [-1.5285306731773354, 40.9949360963127], [-1.5289617019186381, 40.9952343515538], [-1.5293994653296472, 40.995965067225114], [-1.5294647306299682, 40.99620460589096], [-1.5294893336889734, 40.99666882153397], [-1.5298653882298368, 40.99703392970859], [-1.5299956394544485, 40.99745895829096], [-1.5301433188939146, 40.99813642536436], [-1.530144521738095, 40.99871744284168], [-1.530145114626179, 40.9991588330085], [-1.5300362576783404, 40.99957630613487], [-1.5296838575755471, 41.000486100332566], [-1.529695479978694, 41.00076548997671], [-1.5299870416788954, 41.00102142724237], [-1.530179128436077, 41.0018075546386], [-1.530182703730925, 41.00241562626745], [-1.5298684425018014, 41.00241161691656], [-1.529927999906832, 41.00210611301603], [-1.5297990970534634, 41.00158652134368], [-1.529737173485978, 41.001229923665164], [-1.5293971117435852, 41.00081573012977], [-1.52931415502206, 41.00060298836135], [-1.5296126139869755, 40.99974655337456], [-1.5297627332507586, 40.999311590949624], [-1.5297196976604441, 40.99887416391355], [-1.529594343152444, 40.997426815977335], [-1.5294781191209756, 40.997173114345145], [-1.5291021229705901, 40.99677197326649], [-1.529064702749132, 40.99608239990812], [-1.528726476264876, 40.99558715700094], [-1.5283334076325203, 40.99518579540802], [-1.528162504048027, 40.99498544253426], [-1.528054766401038, 40.994884980422704], [-1.527780154113638, 40.994903992094066], [-1.52753138276371, 40.99496386933082], [-1.5271640400844646, 40.995242919643566], [-1.5266040725571426, 40.995429430077124], [-1.5262043590866572, 40.9956269942937], [-1.5258024743880871, 40.9959551418557], [-1.5255438592992652, 40.996122982031316], [-1.5251060698371404, 40.99626150414578], [-1.524382777811403, 40.996540495403366], [-1.5237560735433144, 40.99675315943197], [-1.5231958230467069, 40.996984688076196], [-1.5229112574259336, 40.99711615789142], [-1.5227220416843754, 40.997203811295186], [-1.5224862249391564, 40.99728185807039], [-1.5222575596818968, 40.9973059492662], [-1.5219428205490506, 40.99732443275952], [-1.5216956455053647, 40.9973122546181], [-1.5191229522783625, 40.99708555785412], [-1.5184488942183785, 40.99702284715793], [-1.5178731702410007, 40.99701544409984], [-1.517417287810736, 40.99703210047088], [-1.5168861436276164, 40.997124352838405], [-1.5162472159834894, 40.99725124522813], [-1.515628984625157, 40.99738290570605], [-1.5153945755399898, 40.99739790022117], [-1.5148893486511619, 40.997229251730886], [-1.5145043010759895, 40.99710268541538], [-1.5145227650483304, 40.99690925463511], [-1.5124211258984048, 40.99572915165819], [-1.5116972517643483, 40.99540453407038], [-1.5104103055254015, 40.99517172181454], [-1.5100126186541678, 40.995013447413825], [-1.5096237271878816, 40.99443192199299], [-1.5095314504452706, 40.99437217784405], [-1.5084575792018236, 40.99493928707116], [-1.5077591121189409, 40.99431321337046], [-1.506984296321782, 40.993942867266114], [-1.5062410850529393, 40.993653995575656], [-1.5060948186634073, 40.99361606846515], [-1.505531989103633, 40.99363129097805], [-1.5052459403643184, 40.99356452710275], [-1.504980427112452, 40.99344398215674], [-1.5044239423534769, 40.99321156844316], [-1.5039994084316888, 40.99302590199559], [-1.502863008156246, 40.992677858294506], [-1.5026090382557482, 40.99263852842981], [-1.5009128429295262, 40.99128783082961], [-1.5007509180063219, 40.9910560265489], [-1.5001211630595235, 40.99048484671818], [-1.49983891149894, 40.990251474634725], [-1.49955499895339, 40.990058614350076], [-1.499330464149818, 40.98993408678744], [-1.4990724042198356, 40.98981362403089], [-1.4984013797705833, 40.98958869702099], [-1.4981963932059155, 40.98948694105491], [-1.4979715296189389, 40.98934439049134], [-1.4978333947793665, 40.989243504800136], [-1.497767874357503, 40.989184099735105], [-1.4972265324992997, 40.98884375503795], [-1.4971881618602456, 40.98876668827361], [-1.4970926969967024, 40.98855376115177], [-1.4970058604514467, 40.98825537126202], [-1.4969460703827677, 40.98794382369885], [-1.4968956614205773, 40.98780804869067], [-1.4965225812016374, 40.98742035220819], [-1.4963588389865714, 40.987269588122004], [-1.4960430883507267, 40.98704027326126], [-1.4958377810874954, 40.986920492134864], [-1.4954752399034357, 40.98669056644458], [-1.4951723513458326, 40.98648393697189], [-1.4949402060151842, 40.986368308920724], [-1.4946854455972072, 40.986103756335964], [-1.4945287030548582, 40.985939569409275], [-1.4944129901648049, 40.985735382862046], [-1.4941120338833918, 40.98541167424632], [-1.4938702388499223, 40.98516530364089], [-1.493714012838871, 40.98497860345562], [-1.4934993451303507, 40.98468304415522], [-1.493187308129907, 40.984291630107656], [-1.4928556312623884, 40.98388194348252], [-1.49264724457434, 40.98360448074768], [-1.492495760769666, 40.98350341470599], [-1.4923764689915098, 40.98345681516253], [-1.4922443196266977, 40.983387527805085], [-1.4918456976092858, 40.983242691610315], [-1.491541091472832, 40.98311259652433], [-1.4912828662528506, 40.98300112364108], [-1.490912629201757, 40.98278459391003], [-1.4905879744648158, 40.98265423344367], [-1.4898694381201791, 40.98246466504529], [-1.4894427536316064, 40.982378004520776], [-1.4887710141233643, 40.982189042951035], [-1.4886917288164099, 40.982147468254254], [-1.4886205678728714, 40.98204294547444], [-1.4885063219316448, 40.98177571785013], [-1.488424364136692, 40.98155845575546], [-1.4884493534712822, 40.98134259741251], [-1.4884597406909201, 40.98118059248194], [-1.4883922843995783, 40.98091397917044], [-1.488187077747655, 40.98059601469665], [-1.4880692699863702, 40.98038728957503], [-1.4879652064489102, 40.98025981608783], [-1.4878203198716866, 40.98016333342682], [-1.4877481321537658, 40.980103835410354], [-1.4877234536362711, 40.98001343505237], [-1.4876936358570487, 40.97985540570583], [-1.4876447944550601, 40.97965209008845], [-1.4874616630029096, 40.97918128274761], [-1.48737639581445, 40.97907657419241], [-1.4873275562090889, 40.9788732582088], [-1.4871951211799999, 40.97852472000567], [-1.487091884990933, 40.978361224274735], [-1.4869949217374643, 40.97821582702893], [-1.4868273194616708, 40.97794339300204], [-1.4866003663933458, 40.977602621350925], [-1.486456824594077, 40.97744760353619], [-1.4863323046209802, 40.97733787490396], [-1.4862336974505566, 40.97726451733831], [-1.4860550908125194, 40.97718110195901], [-1.4859084606052964, 40.97716116010982], [-1.485663409178949, 40.97702732765692], [-1.4855540105470268, 40.97684123109566], [-1.485476175120921, 40.976736618522175], [-1.4852672449521287, 40.976517686356146], [-1.4850365944180837, 40.976339002554454], [-1.4850046197838638, 40.976275528127665], [-1.484762584001939, 40.97604264765006], [-1.4845867657345255, 40.97583766068667], [-1.484483333712725, 40.975683168411884], [-1.4840078922637574, 40.9751004171916], [-1.4837800570498159, 40.97483169104575], [-1.4836823823306462, 40.97471780866862], [-1.483534110901426, 40.97444562334814], [-1.483438502307447, 40.97424169014241], [-1.483236269079083, 40.974022842614296], [-1.4830337277286145, 40.97381750143942], [-1.4829300971791217, 40.97367201346818], [-1.4827266081060155, 40.973475667376086], [-1.4826468224374443, 40.9734566013712], [-1.4825266233608532, 40.97345051484422], [-1.482254466169087, 40.973365862278115], [-1.4821633778976024, 40.97325656907021], [-1.4820212814876634, 40.97300698294327], [-1.4819324668521325, 40.97279863465117], [-1.4818111646443721, 40.97254932216109], [-1.4817078476069332, 40.97239032470279], [-1.4816245818649065, 40.972231592058115], [-1.4814968054988982, 40.97197318609108], [-1.4813630688109818, 40.97168317431581], [-1.481167721169303, 40.971423879035456], [-1.4808992821045233, 40.9709834630271], [-1.480786335127233, 40.97085586487919], [-1.4806363443225348, 40.97069174783872], [-1.4804532308367266, 40.97048215506953], [-1.4803494044544998, 40.970345669231804], [-1.4802055832792007, 40.97020415100056], [-1.4800149814371544, 40.97006201794864], [-1.4797593927725203, 40.96980642851069], [-1.479348709974078, 40.96935062097777], [-1.4790646554947198, 40.96920274984105], [-1.4789835304380432, 40.96924221373936], [-1.4787889391778204, 40.96953239970957], [-1.478513239928899, 40.96989357627614], [-1.4782731265416629, 40.97016064109513], [-1.4780675452922833, 40.97034709021182], [-1.4775908291339346, 40.97072812947435], [-1.476881892186448, 40.97129075932724], [-1.4764700083404527, 40.97172669746067], [-1.4762844837764013, 40.97194493674948], [-1.4743579379534648, 40.97193296417976], [-1.4742287368593934, 40.97173758621195], [-1.4730650763083644, 40.97053314811808], [-1.4729930170495285, 40.97046913905383], [-1.4712419867617168, 40.969806375605046], [-1.470735265974583, 40.969137581654536], [-1.4704156094638918, 40.96879554766686], [-1.4704046347460522, 40.96869181292849], [-1.4704812682263084, 40.968557712326415], [-1.4706178364040097, 40.968433414803144], [-1.47107286184151, 40.96812417883762], [-1.4712612143020574, 40.96781590867595], [-1.4712903367852597, 40.96771270418403], [-1.4712818584856207, 40.96750090968187], [-1.4711908717237416, 40.9670988555185], [-1.471162034904816, 40.96690030164484], [-1.4711590947188828, 40.966738122191344], [-1.4712162985378514, 40.966576740711126], [-1.4712872834116257, 40.96639752667677], [-1.471344383026031, 40.96624064701398], [-1.4713598286590246, 40.96615077370173], [-1.4713122925091187, 40.965893421088346], [-1.4712566221143286, 40.965699015583624], [-1.4712333234091424, 40.965550078760685], [-1.4712351928032357, 40.965469032872164], [-1.4713361302034966, 40.96515059373982], [-1.4714612996585614, 40.96494057026783], [-1.463697304388379, 40.96101804714244], [-1.4633423099510017, 40.96101781988916], [-1.4631206533495962, 40.96106440747124], [-1.462611555620209, 40.96108013813302], [-1.4618020801244391, 40.96107834792164], [-1.461434776971066, 40.96106443731941], [-1.4611282421517109, 40.96102431390539], [-1.460282653483193, 40.96085088214012], [-1.4600162032884538, 40.96077976453775], [-1.459745069277815, 40.96065453724056], [-1.4594998184254786, 40.9605341587157], [-1.4593479142092631, 40.960455562380275], [-1.459135035046497, 40.960412181721715], [-1.4588805962254145, 40.9604313003388], [-1.4586718753640793, 40.960464539977856], [-1.458574555479463, 40.960625378783305], [-1.4584721241808958, 40.96071859110058], [-1.4582979749832892, 40.96073427842908], [-1.457884627781689, 40.960656686322054], [-1.4574386142431368, 40.96057865725197], [-1.457179382011709, 40.96051663634041], [-1.4567745041266436, 40.96036258847943], [-1.4567287798786832, 40.96031693655974], [-1.4564696069360306, 40.96006124900052], [-1.456362351684383, 40.959947214950816], [-1.4557900574747564, 40.959552214724], [-1.4556205292109528, 40.9593697877777], [-1.4554677778834075, 40.959264150952485], [-1.4552836358265893, 40.95916710098125], [-1.4546324892979425, 40.95896921112978], [-1.453821734601206, 40.95880070315188], [-1.453220147228462, 40.95870705666896], [-1.4528009861303803, 40.95862486606935], [-1.45261431711266, 40.95860434469118], [-1.4525015686630283, 40.958566799710916], [-1.452349462325866, 40.9584656722438], [-1.452112603534914, 40.95830485598978], [-1.4519802313878882, 40.95824903145006], [-1.451801406459223, 40.95817907110341], [-1.451620572897581, 40.958163131482195], [-1.4515218210984249, 40.958098749511194], [-1.4518251354574523, 40.958021753332034], [-1.4520816691497658, 40.95791260159496], [-1.4522037286373128, 40.957837674320686], [-1.4523723496026817, 40.95777237890409], [-1.4525284534428609, 40.95770241262499], [-1.4525772220813178, 40.95761749291639], [-1.4521142393670283, 40.957377073948095], [-1.4519291531808272, 40.95728901483516], [-1.4517966786258991, 40.95723769270094], [-1.4515902808078913, 40.95717186617617], [-1.4513457998117338, 40.95705148062129], [-1.4508378438410907, 40.956733886201675], [-1.450502774036735, 40.95648617241609], [-1.4503782477754255, 40.956380908853546], [-1.4501271902130843, 40.956224400897426], [-1.4500221834445717, 40.956141918878885], [-1.4499269135154318, 40.95592895428087], [-1.449877466648933, 40.95575714141076], [-1.4498197579767622, 40.95565277627472], [-1.449532519868024, 40.9553606629211], [-1.4493621732390312, 40.95518272033269], [-1.449265009661243, 40.95505080056701], [-1.4492075147881147, 40.95493742950745], [-1.449193900820003, 40.95466250856067], [-1.4492197417574748, 40.954415141145766], [-1.449161929779038, 40.95431527735215], [-1.4490425104401272, 40.954277640378656], [-1.4486762008234437, 40.954223167273454], [-1.4483564437014447, 40.95414680227078], [-1.447997448167795, 40.95406540248098], [-1.4477438735260537, 40.954016949676806], [-1.4477013508737486, 40.954056912489584], [-1.4475324891598913, 40.95381593169399], [-1.4470906222446744, 40.953278520007906], [-1.4468606400572368, 40.95266739541217], [-1.446488565951379, 40.952130921506004], [-1.4464299805235077, 40.95165271791448], [-1.4464392726967839, 40.95125649973162], [-1.4453692112084604, 40.95068809419662], [-1.4450209523390862, 40.9506563741667], [-1.4445311279641249, 40.950676788781315], [-1.444163996388964, 40.95068985076612], [-1.4432675927197678, 40.95079034627437], [-1.4425524187692669, 40.95082572524336], [-1.4416074413960172, 40.950876008193774], [-1.441205950159576, 40.95089760328168], [-1.4408532419346116, 40.95105497466808], [-1.440733195571627, 40.95094976079394], [-1.4410693595239807, 40.950769647414596], [-1.4416463564141457, 40.95073691378425], [-1.4421197443143483, 40.95068926592144], [-1.4430463753945433, 40.95066124968396], [-1.4437819051694059, 40.95058110348974], [-1.444397068781017, 40.95044077702384], [-1.4444353415036872, 40.95029716846103], [-1.4444206980662684, 40.95016185332015], [-1.4445473039274588, 40.9499879099363], [-1.4449405953419947, 40.94961939245745], [-1.445890093936069, 40.9493439472841], [-1.4465967374846325, 40.94900667142613], [-1.4469905400405836, 40.94861563396102], [-1.4476035845264419, 40.9478041789839], [-1.4480981933286108, 40.94719830830837], [-1.4481825774731238, 40.947019287955875], [-1.4483923439734472, 40.94633751779139], [-1.4484817892262738, 40.94594237777648], [-1.4486024868678542, 40.945353991317845], [-1.4486112768829196, 40.94526403053336], [-1.4487623169198274, 40.944806665219566], [-1.448931609825025, 40.944457638334086], [-1.4490382425441837, 40.94418433481767], [-1.4492503491558126, 40.94368725420139], [-1.4494510309936561, 40.94339269466432], [-1.449686997757557, 40.94295448485356], [-1.4498305269803997, 40.9426906837267], [-1.4500106266184465, 40.94235531253148], [-1.4501803668846316, 40.94224049265877], [-1.454562649776201, 40.93774135225045], [-1.4566046910968933, 40.935620336312326], [-1.4574168121311817, 40.934793475390826], [-1.4582871996914386, 40.93388631618651], [-1.4593217382001737, 40.93281469916922], [-1.459541132843721, 40.93260594642808], [-1.4599291664189122, 40.93229585581165], [-1.4608868253089864, 40.9316555741282], [-1.462557676466098, 40.93054287702304], [-1.4640291537324068, 40.92967071176804], [-1.4658930788952103, 40.92861458491584], [-1.4663658011438305, 40.92839567840126], [-1.4667577648483563, 40.92823424594559], [-1.468031400749777, 40.927791776440074], [-1.4715143676339602, 40.92669400585035]]]}}