{"type": "Feature", "properties": {"slug": "grand-lieu", "name": "Lac de Grand-Lieu", "natura_codes": ["FR5200625"], "natura_names": ["Lac de Grand-Lieu"], "sea_clipped": false}, "geometry": {"type": "Polygon", "coordinates": [[[-1.6521597995947115, 47.04211093109107], [-1.6529618244635218, 47.042157853021834], [-1.6551066330527293, 47.042155414764686], [-1.6562262878329788, 47.04230567559676], [-1.6569609839712347, 47.042421558781705], [-1.6576672744819057, 47.04263391279015], [-1.6578339721542554, 47.04347845805742], [-1.6583335701995037, 47.0436736719863], [-1.6589993484874737, 47.044242334178136], [-1.6600706505492555, 47.044687188201195], [-1.6608908878621194, 47.045027777667386], [-1.6617852604404784, 47.045043498465986], [-1.6624035115617133, 47.045470575736225], [-1.6644939864492785, 47.04711829471063], [-1.6652544696260807, 47.047612463978986], [-1.6659255201264822, 47.04701355846316], [-1.6659980671705088, 47.04694881123692], [-1.6662459500866407, 47.046561844275196], [-1.666456934702495, 47.0461536431238], [-1.666722053593969, 47.04555619278187], [-1.6669395330293044, 47.04524234762076], [-1.6680222176440416, 47.045391979059595], [-1.6686894188634138, 47.04555789143421], [-1.668845565822754, 47.045813676642716], [-1.6690368683507029, 47.04606372933457], [-1.6685569523933264, 47.046553376881604], [-1.6680235031331878, 47.0468061720434], [-1.6676698804232786, 47.04714998909614], [-1.6673233265563623, 47.04760975174882], [-1.6673913604644046, 47.04771806823557], [-1.6675985047824005, 47.04804785378988], [-1.668380311269105, 47.048352097651666], [-1.6690938017767787, 47.04868033498002], [-1.6698501697712773, 47.049102561117444], [-1.6703502969242494, 47.049319324302765], [-1.670512962059262, 47.04915601397408], [-1.6717612690629233, 47.04790271282195], [-1.6731618216425967, 47.04828928443606], [-1.6786657769305298, 47.04980823317856], [-1.6798386191620915, 47.05026268277203], [-1.6805832892949542, 47.05054292025912], [-1.681334518027725, 47.05089499019102], [-1.6823793126020552, 47.051470992946676], [-1.68311681417898, 47.05165688170635], [-1.6838234388629378, 47.05189158973815], [-1.684917140416278, 47.05218391034584], [-1.6863538573727008, 47.05248763608071], [-1.6897155759480496, 47.05314638601679], [-1.6905668275961365, 47.053918265542386], [-1.6933857526357723, 47.054472078521684], [-1.6961696676338962, 47.05501893383321], [-1.697321495576024, 47.055190200172284], [-1.6984082953730644, 47.055413277244206], [-1.6991489051208464, 47.055621477222076], [-1.7004342137310515, 47.0557429840057], [-1.7017568293749805, 47.05590819709482], [-1.7030949652120955, 47.056262022332255], [-1.7037529012076713, 47.056285733202685], [-1.704691402626012, 47.05636983776553], [-1.705486764690384, 47.05641212225215], [-1.7064125513542074, 47.0563345135593], [-1.707550205677765, 47.05631700108224], [-1.7080669875961239, 47.05629881233539], [-1.70851754840665, 47.056330698330626], [-1.7092115616423231, 47.05637832624488], [-1.7095194735789954, 47.05679086654837], [-1.7089451662448067, 47.05742363634494], [-1.7088958316677452, 47.05770043906114], [-1.708847904750702, 47.05796935002442], [-1.7091183856861174, 47.05833816918008], [-1.7093123265660748, 47.058637615193064], [-1.7101167140040847, 47.059221841819046], [-1.7109785612809363, 47.059686932822196], [-1.7116814328036207, 47.059851348543255], [-1.7123135215735117, 47.05981049510653], [-1.7125393517477314, 47.05979589916559], [-1.7128477874022114, 47.05976070941322], [-1.7135366910205612, 47.05973643096121], [-1.7138928766239898, 47.05982747158037], [-1.7142516269175314, 47.05991391376025], [-1.7148719540453918, 47.06008122029379], [-1.7149419301110922, 47.060065240172385], [-1.715819329022128, 47.06027121832573], [-1.7162810639764825, 47.06039636422382], [-1.7165898921947609, 47.0604710467517], [-1.7170875328110005, 47.06060212813783], [-1.7173515476730086, 47.06090179581335], [-1.7164673422270655, 47.06141221669494], [-1.7132477335363785, 47.063085969564966], [-1.7124931154600591, 47.06347823826016], [-1.7139539333172094, 47.06414662713585], [-1.7161674845852357, 47.065159358429845], [-1.7166702006828427, 47.06572175092006], [-1.7168169144333625, 47.065870273671045], [-1.7171457202852243, 47.066203128195156], [-1.7172819911205528, 47.0673783913667], [-1.718386587441691, 47.066889015168236], [-1.7196885894448246, 47.066743984217275], [-1.7204896477263911, 47.06673372414853], [-1.7213051095952185, 47.066272545236934], [-1.7224214477954174, 47.066881712966186], [-1.723821797355847, 47.06581883050738], [-1.7240011208495012, 47.06496573086879], [-1.7242255029395004, 47.06472538842214], [-1.7248625333417575, 47.0644713736027], [-1.7252816243712656, 47.06422234710971], [-1.725625795007749, 47.063962458562116], [-1.7260870053459652, 47.06362906869149], [-1.726428591529399, 47.0633350380817], [-1.7266530149418644, 47.06309559270922], [-1.7266462272715961, 47.06267875403139], [-1.7271537295930384, 47.06233021014477], [-1.7276124686659062, 47.061964464222], [-1.7282882802373243, 47.06157573488253], [-1.728621412375574, 47.061480172533145], [-1.7288793950504728, 47.06135664287978], [-1.7292361870166753, 47.06126024605424], [-1.7297098884289317, 47.061095748393136], [-1.7299654690087585, 47.060935369875295], [-1.730314436648842, 47.06074105015244], [-1.7306187041204233, 47.060596961407335], [-1.7309481028603695, 47.060436667062994], [-1.7311347736747174, 47.06034628595002], [-1.7314164655849091, 47.06021920553299], [-1.7317206566996703, 47.06007601924305], [-1.7321437236725983, 47.05986285834075], [-1.732468730549135, 47.05968470037452], [-1.7328466311279336, 47.05952268243712], [-1.7332940702928459, 47.05935639981035], [-1.733749386784506, 47.059259198911924], [-1.734205564760482, 47.05919079350435], [-1.7347568437823775, 47.05909018729378], [-1.7350658902912504, 47.058993657244145], [-1.7369090122687043, 47.058631070100176], [-1.7388733627920567, 47.0588947237983], [-1.7397669996501925, 47.058511704477894], [-1.7413521883601217, 47.05779394823855], [-1.7415522108345287, 47.057703377213585], [-1.7423986394278328, 47.057008525659725], [-1.7432881072047395, 47.056245473126175], [-1.743582220120331, 47.055953070128], [-1.7439265228091545, 47.055693118013096], [-1.7443188781791814, 47.055413436367814], [-1.7448240349994022, 47.055362165493875], [-1.7451444451966245, 47.055415646961826], [-1.7456342282491195, 47.055481120161865], [-1.746220522702443, 47.055526049247554], [-1.7463852656407088, 47.05543912625549], [-1.7465419282330163, 47.05526690107546], [-1.7467002095894264, 47.05512795500559], [-1.7468585223869018, 47.05495657463098], [-1.7468931416613103, 47.054772479578375], [-1.7470229113889444, 47.0545516679859], [-1.74694768556874, 47.053892227900285], [-1.7469922968040632, 47.053525804101845], [-1.7472385654476446, 47.05324950300815], [-1.7475967875317928, 47.05348629964217], [-1.7478411939677911, 47.05382443559594], [-1.7480712785631645, 47.0542982050908], [-1.7483583675515844, 47.05488705166337], [-1.7484934058983286, 47.05504890252923], [-1.7486317949611128, 47.05527549866916], [-1.7488492366672035, 47.055583057575895], [-1.748924157060228, 47.05592992276893], [-1.7490032986367472, 47.05632527536885], [-1.7491083772704943, 47.05673592072284], [-1.7490871015713048, 47.05711773309474], [-1.7489481654345214, 47.057505524933795], [-1.748788904016111, 47.05797782111357], [-1.7487641302771908, 47.058291286573116], [-1.7486971087704775, 47.05867652650339], [-1.7484790166841215, 47.05899956951276], [-1.7483048980292164, 47.05927150745753], [-1.7481529381174477, 47.059526437464655], [-1.748052051022824, 47.059780455650895], [-1.7480486742557013, 47.06006163266532], [-1.7480801386468368, 47.06047489962534], [-1.7481066757786259, 47.06082347889547], [-1.7482264113245483, 47.06111830053174], [-1.7484225476870454, 47.061460850390546], [-1.7486211930441355, 47.06185015517931], [-1.7485741940867938, 47.062185135581906], [-1.748315103789174, 47.062608724662006], [-1.7481442855446383, 47.06291387311111], [-1.7481173100349656, 47.06319679104784], [-1.7481608909026511, 47.063460990031764], [-1.7481552728388705, 47.06369540317883], [-1.748251528219893, 47.064007277699645], [-1.7483463642627348, 47.06428496349333], [-1.7482703560099253, 47.06456962482483], [-1.7482228971151363, 47.06475486152568], [-1.748214456544742, 47.06478781085251], [-1.748292089849901, 47.06518412148611], [-1.7483860931545, 47.0654456243858], [-1.7484116008169823, 47.06610952913246], [-1.7481389980608895, 47.06668493923252], [-1.7481388067197074, 47.06699753663943], [-1.7483656430070433, 47.06732740550689], [-1.7483849127682143, 47.067355427635675], [-1.7487047022295756, 47.0677251100736], [-1.74886708619193, 47.068250833269126], [-1.7489391149080313, 47.06888155683565], [-1.7489430297660487, 47.069576858164524], [-1.7487551426327974, 47.06996638758252], [-1.7487066219293395, 47.070298716041165], [-1.7485414990037016, 47.07067212618966], [-1.7486276600158734, 47.071166320103046], [-1.7488958825866525, 47.07278368722739], [-1.7489398003225833, 47.07464143990707], [-1.7486486877800305, 47.07528236279202], [-1.7487828080485746, 47.07609104998657], [-1.7486162981241513, 47.076778892792134], [-1.7474564275652769, 47.07718583910579], [-1.746846009753298, 47.07843445486173], [-1.7489237950391647, 47.0792092074658], [-1.7493773274766555, 47.08005608355928], [-1.748926110895982, 47.080520735260095], [-1.7485390196535127, 47.08149837582331], [-1.747376826949641, 47.0818882830056], [-1.746250638722335, 47.08240842599852], [-1.7456522331823436, 47.08316114689036], [-1.7500826451118698, 47.08486125720483], [-1.7523028600826651, 47.08559576468862], [-1.7527533202818828, 47.085764416409226], [-1.753035660775679, 47.08595255152158], [-1.7531904782283814, 47.08608036758563], [-1.7534262976685586, 47.08630349339604], [-1.7535810720021336, 47.086415096014335], [-1.753699965826609, 47.08670814176461], [-1.7535943185592995, 47.08689657141866], [-1.7533247530071594, 47.087187216855696], [-1.752742550379948, 47.08754123328698], [-1.7515830301640416, 47.088263494326405], [-1.7507498472296061, 47.08880838342386], [-1.7497699217985438, 47.088410816618705], [-1.74675783381997, 47.087788162379475], [-1.746268178328263, 47.08584355117851], [-1.7448632150205408, 47.085909652500156], [-1.7423414814229494, 47.08566763739196], [-1.7414237804950004, 47.085561330250805], [-1.740257813968589, 47.085426254261975], [-1.7387662907967172, 47.08596197113527], [-1.7359689127474607, 47.08785371815042], [-1.7351777476121282, 47.08801416124727], [-1.7347075433412722, 47.08821548020868], [-1.7340676877374435, 47.088751596560975], [-1.7337632504842775, 47.08891100819281], [-1.7332582059534272, 47.08897843355353], [-1.7326757293400676, 47.08962962252238], [-1.7331228999087147, 47.090080414691386], [-1.7321103153272108, 47.09116300110539], [-1.731884495932756, 47.09138538515937], [-1.7317767924217569, 47.091542103376845], [-1.7317322126274652, 47.091606969537345], [-1.7315838316037993, 47.091911284716936], [-1.7315215756596545, 47.092046812741245], [-1.7314667406980986, 47.092280256780256], [-1.7313321021016292, 47.0924336551066], [-1.7312251792266078, 47.09262210548231], [-1.730998123750347, 47.092828318660864], [-1.7306999459580896, 47.09305506184324], [-1.73027041201339, 47.093184655852106], [-1.7300099859209532, 47.09326232465025], [-1.7296281848572241, 47.093358701516514], [-1.7292961504602276, 47.093469535278096], [-1.7288161015521804, 47.09355406921325], [-1.7284864027749038, 47.09368012649553], [-1.7281996398749635, 47.093774036741536], [-1.7281260139542898, 47.09380489061385], [-1.7276831561973076, 47.09399047276211], [-1.7268534156070163, 47.09428553170194], [-1.7263353904203413, 47.094520030662245], [-1.7259428095732094, 47.09478432694994], [-1.7254985037319732, 47.0950135172146], [-1.7251192664600603, 47.09514401339773], [-1.724665153710911, 47.09524383114544], [-1.724249308294516, 47.09520807219683], [-1.7240808274663615, 47.09523023379458], [-1.7239085800022103, 47.095220103356226], [-1.7237329746355088, 47.095127211457985], [-1.7235095609294142, 47.095068442543756], [-1.7232759477515753, 47.09487850983954], [-1.7229090461451382, 47.094841018092765], [-1.7224959639465482, 47.094855600156244], [-1.7221417582300225, 47.09500141996011], [-1.7216351398508243, 47.09536611480184], [-1.7212785347341848, 47.09579577155664], [-1.7218506151447686, 47.09692140839576], [-1.7209643354888273, 47.09710131625547], [-1.7210081903426613, 47.097680789230324], [-1.720304560641893, 47.098336180574634], [-1.7195635493471753, 47.09818035071299], [-1.719442608262148, 47.09884851107362], [-1.7204434042521752, 47.09921226902778], [-1.7207567357249698, 47.0995002838185], [-1.720839541529549, 47.09994596160667], [-1.7207111264613713, 47.100515298041095], [-1.7205477911831573, 47.10090209845771], [-1.7204628455915583, 47.10108705661214], [-1.7202119227765154, 47.10162738553858], [-1.7199987723225258, 47.10201503639204], [-1.7198239952025483, 47.10227162634943], [-1.7195994352461241, 47.10251195722564], [-1.719542163155176, 47.10271395148099], [-1.71953704814797, 47.10299518449852], [-1.7195647764458435, 47.10336173113407], [-1.719607274843627, 47.103574623291344], [-1.719600933636016, 47.10383968176157], [-1.7196013037419202, 47.104154947277664], [-1.7196239358971934, 47.104454119989825], [-1.7196351504651914, 47.10460235685873], [-1.7196439853960113, 47.104719150234594], [-1.719681137021204, 47.104899801556805], [-1.7196664154303378, 47.105015619026375], [-1.7195814940932603, 47.10518526582613], [-1.7195456081943115, 47.10533696569338], [-1.719078731283271, 47.105286767002816], [-1.7187504563357272, 47.105115478190086], [-1.7183970941372426, 47.1046297931842], [-1.718034892516386, 47.10432728415298], [-1.717362278049071, 47.10413480046814], [-1.716496103587501, 47.10424910442118], [-1.7156163259375847, 47.10451160367166], [-1.7151443951047742, 47.105026370662785], [-1.7148540578083165, 47.10568517328564], [-1.7150484963549326, 47.10602693654527], [-1.7151784161012156, 47.106436729416714], [-1.7153543933704154, 47.106844894581585], [-1.7155771045939796, 47.107204576598235], [-1.7155284967539364, 47.10752156777798], [-1.7154036165564035, 47.10780701248499], [-1.714913026816815, 47.10809093508703], [-1.714543472485349, 47.10833545166977], [-1.714367652421308, 47.1085893668444], [-1.7143677404562234, 47.10890644271002], [-1.7145575257296415, 47.10948167069288], [-1.7146801242063803, 47.10982596457228], [-1.7150634991184905, 47.11070875358675], [-1.7155104352268615, 47.11180549561013], [-1.7155190159344365, 47.11183877227067], [-1.7156842250983624, 47.11247947995772], [-1.7156741558823305, 47.11267800545971], [-1.7156350522180115, 47.1131207729421], [-1.7153541885545438, 47.113594580889895], [-1.714761286992302, 47.1137983206602], [-1.7144366996290097, 47.11400972953574], [-1.7136852310460469, 47.114367685015644], [-1.7131408097630603, 47.114568810816095], [-1.7125707900877178, 47.114740206146784], [-1.7122874102431465, 47.11484927144707], [-1.7115035663773583, 47.11508663622567], [-1.7111699751999918, 47.11518765207863], [-1.7104870480732315, 47.115492729916596], [-1.7101727230637138, 47.11583528177278], [-1.7095698672698016, 47.11622400594505], [-1.708865977057575, 47.11687931756159], [-1.708544947022822, 47.11714012295288], [-1.7083778837361536, 47.11751081889331], [-1.707875810832302, 47.11796084931583], [-1.707748330012005, 47.118195033717434], [-1.7069420516203386, 47.11845757789271], [-1.7059620255779682, 47.1190234814354], [-1.705683818232784, 47.1191999067124], [-1.7053280737021639, 47.11964478446065], [-1.7049085146504013, 47.11988921862099], [-1.7046013177726853, 47.120332388834456], [-1.7046389131656443, 47.12083101158005], [-1.7046150763695966, 47.121160635177205], [-1.704707298314985, 47.12172218719326], [-1.7047717218938925, 47.12192345451238], [-1.7048971931828822, 47.122315443491736], [-1.7056878040577055, 47.12311819669488], [-1.705957438780122, 47.12347354267535], [-1.7069237547346243, 47.12403680982718], [-1.7074491928190143, 47.12454981286769], [-1.7078800095579354, 47.1250994630102], [-1.7080025712037263, 47.126090529343415], [-1.708672921916489, 47.12722898401831], [-1.7090740062161451, 47.128012082090734], [-1.7092227968715878, 47.12870495908257], [-1.7093661087021328, 47.12933047548439], [-1.7092566040689865, 47.1298189499344], [-1.7092351720629355, 47.13026761910413], [-1.7092289314666662, 47.130398226884026], [-1.7106849711848218, 47.13046863652282], [-1.71071269499111, 47.13044454124118], [-1.7111494558822584, 47.13006495874797], [-1.7133808494884342, 47.12873164224298], [-1.716816644040436, 47.12646317743385], [-1.7185613609684134, 47.125221657309844], [-1.7201026552986027, 47.124104390580364], [-1.722373266655162, 47.122772202764246], [-1.7244029651238686, 47.121130485435415], [-1.725703997844801, 47.12011799579137], [-1.727251096190037, 47.11953188894353], [-1.7284350613614596, 47.11911892897967], [-1.729690927688229, 47.11862594949347], [-1.7305465846744486, 47.118613718230364], [-1.7317672801612252, 47.11866965106631], [-1.7330228913664525, 47.118243300164785], [-1.7334026289999818, 47.11809654821814], [-1.7337068174198185, 47.117952467840546], [-1.7339391010910197, 47.11779651384209], [-1.7342187619103409, 47.117635285706974], [-1.734403359413021, 47.11751344870933], [-1.734587826659989, 47.11738981359292], [-1.7347752340928564, 47.11728409427294], [-1.7358010131292945, 47.11670099869829], [-1.736172917453534, 47.11680223583707], [-1.7363257622058774, 47.116865288039484], [-1.7364768139208806, 47.116942815927025], [-1.736652730104678, 47.11701766067751], [-1.7369048620520806, 47.11714385374765], [-1.7370583724560398, 47.11725371737466], [-1.737355856748905, 47.11730984664596], [-1.737700128895027, 47.117363413277964], [-1.738336039996434, 47.117500332638045], [-1.7379334096962062, 47.1182622642856], [-1.7365464378469855, 47.11905905139547], [-1.7353584958338124, 47.11924523076462], [-1.7345302509384886, 47.11951595354546], [-1.7338929510416352, 47.119948370912695], [-1.7335762419033542, 47.12038295598885], [-1.7335202211656295, 47.121263224490654], [-1.7338574711811743, 47.12180979365356], [-1.7343133203737795, 47.12225127794446], [-1.7343862366253797, 47.12227301875029], [-1.734316351289553, 47.122449344621764], [-1.7336421665671118, 47.12324969120644], [-1.7331112406746534, 47.12392605742355], [-1.7324017665346023, 47.12453847657018], [-1.731493171828697, 47.12512550070442], [-1.7302313173322426, 47.12574842001239], [-1.7289896794212665, 47.1261544176642], [-1.727962105550894, 47.12657626421627], [-1.7267627279841706, 47.12710325309144], [-1.7256384226256811, 47.12764920118772], [-1.7251112498944625, 47.12789374525598], [-1.7244235545101756, 47.128212744383326], [-1.723141840059424, 47.128956405732936], [-1.72312143752268, 47.12896622416702], [-1.721945334406621, 47.129300063293456], [-1.7213502409550945, 47.129393115583234], [-1.7198804354535175, 47.13004576537229], [-1.718895944784206, 47.130623880499755], [-1.71839045738392, 47.13092070674396], [-1.7170143892856347, 47.13188529167665], [-1.7161290501657878, 47.132326334228544], [-1.7154971509404178, 47.13285483305758], [-1.714562090069627, 47.133129168589456], [-1.7139264978701227, 47.13361094087805], [-1.713123325852686, 47.134193197238936], [-1.71195498687564, 47.13510356239258], [-1.7111243865976264, 47.137231618999266], [-1.7100945354980122, 47.13717325038004], [-1.7098150543417774, 47.13672367212837], [-1.7105447899830615, 47.13609448510344], [-1.710512014949894, 47.135660560639344], [-1.710388458869083, 47.1349649906989], [-1.7107937607589785, 47.13425262940248], [-1.7107396444496337, 47.133988797951304], [-1.7104420577488328, 47.13394317234831], [-1.7100944842940444, 47.13388988152108], [-1.7094106723267433, 47.13420397353636], [-1.7086597840554723, 47.13463102029907], [-1.7079199522487098, 47.13505176869922], [-1.7065465260956547, 47.13560716886953], [-1.705736632883268, 47.13611934229518], [-1.7048956301142992, 47.13667764067002], [-1.7037808136601833, 47.13737075186175], [-1.7030728945039082, 47.138152257891065], [-1.7022182894448565, 47.13916140035921], [-1.7009969579509017, 47.13891330043077], [-1.7007536941719446, 47.138947057536534], [-1.700701230762726, 47.13825078997823], [-1.7006885474492404, 47.13762339007007], [-1.7006883884474207, 47.13716580137659], [-1.7007976954512056, 47.136727790196716], [-1.70090240757227, 47.1362394910301], [-1.700995972499019, 47.135610164446796], [-1.7009760020519455, 47.135345137705094], [-1.7001273177889633, 47.135325363860325], [-1.6991931552334032, 47.135141938153254], [-1.6976231246955966, 47.13495647440493], [-1.6973277460537615, 47.13470373919335], [-1.6967554096233046, 47.13421401711203], [-1.6947609915890702, 47.13450008130583], [-1.6947021447514437, 47.134980025596654], [-1.6946955457273658, 47.135033838432584], [-1.692851339483382, 47.135436211693126], [-1.6927175012858267, 47.13518882342234], [-1.6922750351943123, 47.13437094720063], [-1.6910975226215739, 47.13470221326849], [-1.6881471399198578, 47.13566952291787], [-1.687889645030183, 47.13575393973433], [-1.6874039250577597, 47.13566248680217], [-1.68692128451012, 47.13557161119588], [-1.6867738215646542, 47.135585437179856], [-1.68607868723147, 47.13565060900075], [-1.6849838888351738, 47.13566184454417], [-1.6834490399171251, 47.13547675965435], [-1.6825328265993027, 47.13550875899112], [-1.6815170305406422, 47.135638809416534], [-1.6803247577494622, 47.1357795120616], [-1.679498106465456, 47.13607138538789], [-1.6787585746959905, 47.13657999968021], [-1.6783293686363987, 47.136522914840825], [-1.6776477368802862, 47.13637734565645], [-1.6770701201525906, 47.136228145002214], [-1.6767103269149854, 47.13614430763765], [-1.676205471030359, 47.13599527071229], [-1.675592307966884, 47.135845502505475], [-1.675196845324297, 47.13576470410473], [-1.6746994229986518, 47.135732504484004], [-1.674043367177001, 47.13492485484045], [-1.6730807055690575, 47.13493768000988], [-1.6729628088745603, 47.1347733462545], [-1.6724360314020648, 47.13470162110939], [-1.6721184868305832, 47.13493517266413], [-1.671808863603307, 47.134925238611736], [-1.6714830985486533, 47.13499963518393], [-1.6709643142855644, 47.13516182206387], [-1.6705796898168914, 47.135490486054636], [-1.6701056182987308, 47.13483141440158], [-1.6697481894269528, 47.13472946052374], [-1.669814441077487, 47.13452448335832], [-1.6691904344502153, 47.13440387914056], [-1.6691974107667076, 47.13355961873503], [-1.6699561467202886, 47.13287115007965], [-1.6672295981362417, 47.12987461002539], [-1.6679055911673066, 47.129500814846104], [-1.668156147469734, 47.129362265834246], [-1.6682206177610572, 47.127310780011996], [-1.666966759168934, 47.127593110938406], [-1.6660134912439388, 47.12777939857082], [-1.6657027514107705, 47.12741819195512], [-1.6650992919489753, 47.12732928801049], [-1.6639940560273707, 47.128639276365526], [-1.6639170506445828, 47.128730544578254], [-1.663447799486247, 47.12859372990379], [-1.6618800012618944, 47.129940806423136], [-1.6608913226467146, 47.12992560997727], [-1.6605766958033057, 47.13058959190944], [-1.6598993382312828, 47.130444677528104], [-1.6593543878406058, 47.130271738283554], [-1.6587664243174751, 47.13022459566131], [-1.658121271348396, 47.1300866548019], [-1.6574664192692223, 47.12976709486744], [-1.656879267823101, 47.12947040703069], [-1.6567696329342425, 47.129184165434644], [-1.656600392131343, 47.12880631211683], [-1.655418549678962, 47.12864284561546], [-1.654943039958015, 47.12859898844019], [-1.6544060728952765, 47.12846178166413], [-1.6541963378359847, 47.12839249270976], [-1.6542937879763135, 47.12754059667686], [-1.6544077725077848, 47.12697817278696], [-1.6543465109986601, 47.12638759664041], [-1.654246862680834, 47.12597297851994], [-1.6541575791247514, 47.12560148278946], [-1.654096910503711, 47.12496404723585], [-1.6538934115491368, 47.124428850469414], [-1.6536726361950174, 47.12375192770291], [-1.6534692764793266, 47.12326986745489], [-1.6532073268441456, 47.1225538403618], [-1.6531383380269553, 47.122320231378474], [-1.652844540420045, 47.12221692527699], [-1.652306078560636, 47.12198608499658], [-1.6516364447034573, 47.12203181498963], [-1.6511436549897103, 47.12185072547833], [-1.6503571440258733, 47.121616761325484], [-1.649785008818033, 47.12168162202135], [-1.6490441978476347, 47.12163972856494], [-1.648909490979186, 47.121689577477234], [-1.6484533992414643, 47.12185835450096], [-1.6476767302198603, 47.12262837526608], [-1.646978852431807, 47.122738112655455], [-1.646341620806933, 47.12276017232996], [-1.645952648492275, 47.12270788006764], [-1.6455235214844277, 47.122527269016004], [-1.6451242562732271, 47.12232219958912], [-1.6444487698919916, 47.12186637166678], [-1.6453919030239337, 47.12152297415118], [-1.6447345635097304, 47.12059542736849], [-1.6444598398312236, 47.120039303167246], [-1.6441352039588881, 47.11938212755528], [-1.644268699000019, 47.11901540821438], [-1.6440928097657015, 47.11904581283728], [-1.6440407928191734, 47.118700826108565], [-1.64262573424427, 47.118886687029146], [-1.64151506531182, 47.11908992973746], [-1.6409792471943023, 47.11919402190596], [-1.6402087127677767, 47.1192134514842], [-1.6397074483476792, 47.11918213675882], [-1.6391123135736194, 47.11913064542701], [-1.6384425557489077, 47.11908532616743], [-1.6378152981186405, 47.119024124505565], [-1.6372618793097589, 47.11896217211633], [-1.6364342973710928, 47.11890788149876], [-1.6349732827829113, 47.120021828127115], [-1.632561027767317, 47.12186090097203], [-1.630840711777398, 47.12110311385128], [-1.6302474526856776, 47.12084177591461], [-1.6295690126437523, 47.12100207622003], [-1.629009592190463, 47.121199704996975], [-1.6286005335460392, 47.121184078784026], [-1.6282738396334202, 47.12112057569986], [-1.6273850051688006, 47.12094673142437], [-1.6268908652872163, 47.12086737313893], [-1.626689569900022, 47.12082206452755], [-1.6262645347182867, 47.1212132107504], [-1.6238010263241638, 47.120466647045255], [-1.622418866749894, 47.12008455437442], [-1.6214292080727475, 47.11974930099108], [-1.620826734062835, 47.119503405844995], [-1.620647948660042, 47.11921050755359], [-1.6204883288138565, 47.118941270473556], [-1.620437025129657, 47.11866110343247], [-1.6205025419582657, 47.118368809350066], [-1.6205699182995326, 47.11822687473543], [-1.6202450003562086, 47.117757957458714], [-1.620184433244807, 47.11736641416192], [-1.619462409640238, 47.11712732833614], [-1.6182599248009206, 47.11690745361946], [-1.6172981615082749, 47.116895472597555], [-1.6165124796894252, 47.11709901328198], [-1.615842799119864, 47.117143635511745], [-1.6148546217645978, 47.11722081332777], [-1.6138064216770045, 47.11732166313406], [-1.613165424314465, 47.11732384976483], [-1.6125621004982649, 47.1174076140989], [-1.6119566386917397, 47.11742839469514], [-1.611354331768454, 47.11709957751703], [-1.611147935747107, 47.116911200324495], [-1.610633683484608, 47.11688380089481], [-1.6099753136027672, 47.117082031211176], [-1.6095187062320448, 47.11740394323028], [-1.6089721972643372, 47.1173794495743], [-1.6085118555969806, 47.11722049300439], [-1.608522283240788, 47.11691388579918], [-1.607585890168435, 47.11681448218802], [-1.607228185513848, 47.11673936939808], [-1.6067113559848096, 47.116691330827855], [-1.6062526142169837, 47.11655393011767], [-1.6055432254168904, 47.11649086470875], [-1.6051157378344458, 47.116329871030075], [-1.604756520416947, 47.11623408653831], [-1.6046651797188445, 47.11622335917312], [-1.604174613335447, 47.116165746313854], [-1.6036433748292658, 47.1163487783693], [-1.603155012911579, 47.116671751780174], [-1.6028978629749562, 47.117106600805904], [-1.6025803696074759, 47.11757684667612], [-1.6023079689722965, 47.11780414833647], [-1.6019554413087156, 47.11823055043765], [-1.6017316377337807, 47.11865435176046], [-1.601379049883061, 47.11882675111146], [-1.601405383097309, 47.11884386160668], [-1.6011338574212024, 47.11924496913644], [-1.6007704242100917, 47.11954114185171], [-1.600309971151662, 47.119795591000404], [-1.6001855032808303, 47.11973409674339], [-1.599953099235351, 47.11998343962236], [-1.5993255703138602, 47.120081466231994], [-1.5992506014118255, 47.120408296701534], [-1.5989917761172163, 47.120567570164106], [-1.598774782670444, 47.120958702976395], [-1.5986602537599317, 47.121320204680984], [-1.598644029287588, 47.1215144165844], [-1.5978227786750647, 47.12158033059581], [-1.597036936057768, 47.12162161162292], [-1.5958319691733038, 47.121745663560276], [-1.5948780320034377, 47.12189534922443], [-1.5942267129982481, 47.121971646672534], [-1.59368248305641, 47.12216587453532], [-1.5930880974773298, 47.12229876381874], [-1.5927136033100915, 47.122466480235516], [-1.5922514317745142, 47.12246244052453], [-1.5912559942351396, 47.122350507585], [-1.589690459765306, 47.12221478285712], [-1.5883428422103607, 47.12215897355246], [-1.5880912923712434, 47.122113504671624], [-1.587627958415689, 47.121552845549786], [-1.5884686710288618, 47.120256853122044], [-1.5894146994309821, 47.11994715875867], [-1.5920950656262822, 47.11975479879906], [-1.5935868034954936, 47.11965161058266], [-1.5942828451271132, 47.119447691500675], [-1.5955287985447122, 47.11907365739016], [-1.596649726237682, 47.11852463024394], [-1.5973624846184211, 47.11803819038478], [-1.5979901069647102, 47.11740423665527], [-1.5982681768676383, 47.11711369622792], [-1.5990055410023072, 47.11642374132752], [-1.5996889864569928, 47.11606709078022], [-1.6001504393403587, 47.11572073616347], [-1.60065956671415, 47.11549884926951], [-1.6015333040920834, 47.11516269707265], [-1.6018631187520191, 47.115072142843694], [-1.6020812512625777, 47.11498811440662], [-1.602157724842717, 47.11498549669237], [-1.602671458777291, 47.11486612462823], [-1.6034475672501396, 47.11471164467787], [-1.60378318862008, 47.11470015039404], [-1.6040433838454962, 47.11466602087844], [-1.604082214421964, 47.114689908118216], [-1.6042263760587634, 47.11460841000105], [-1.6048686193846102, 47.11468999431621], [-1.605848931091258, 47.11478250973775], [-1.6067008825269171, 47.114628928205526], [-1.607451002738603, 47.114678058644984], [-1.6077866142270754, 47.11466655273861], [-1.6083823625504525, 47.11462180799883], [-1.6089006347738628, 47.11452476964088], [-1.6101998915254665, 47.114379325480776], [-1.6114824647656434, 47.1140020455897], [-1.6123215110039337, 47.113694023528616], [-1.613141084461843, 47.11312724531741], [-1.6139068182914795, 47.11284694495607], [-1.614791883425145, 47.11266072241329], [-1.6155885480466747, 47.11230278663108], [-1.6163537797180674, 47.11199456398904], [-1.6168962139276746, 47.111746234001835], [-1.6174493066481097, 47.11162634540165], [-1.618024199683839, 47.111297628095556], [-1.618807830648915, 47.11075996938881], [-1.6203704015765912, 47.10960732893603], [-1.6175413552186249, 47.108296742916494], [-1.6164044527849377, 47.10762152801544], [-1.615938210982812, 47.107381737465154], [-1.615665342325378, 47.10723798269915], [-1.614629290155367, 47.10695474645428], [-1.614251606070569, 47.106851491227616], [-1.6133306819873674, 47.10654984164771], [-1.6129651386336414, 47.106154356529345], [-1.6128639883326683, 47.10580023392383], [-1.6128994852611074, 47.105263074260954], [-1.6127524319474182, 47.10480694672292], [-1.612524608411572, 47.10425360471623], [-1.612177608081932, 47.104109689861474], [-1.6119844577194538, 47.10353084144967], [-1.6120142036334415, 47.102915510215865], [-1.6116550140637191, 47.10271346413876], [-1.6122000938118117, 47.102820857257726], [-1.6139901864414088, 47.10276660153583], [-1.6172606227092, 47.10270106962433], [-1.6183176640158263, 47.10308177373777], [-1.619632671827637, 47.103497711237395], [-1.6197740010763213, 47.10354241274406], [-1.6213636157856492, 47.10379398015857], [-1.6228778923853693, 47.104023798742254], [-1.623808518273623, 47.10394221825424], [-1.6248069112702814, 47.1037799386264], [-1.625726045011101, 47.103542909250635], [-1.6264147024910796, 47.103238148744516], [-1.6269133213726918, 47.1028855476407], [-1.6269851174251448, 47.102834774914626], [-1.627291309986339, 47.10244231161579], [-1.6278027002163524, 47.10175992987563], [-1.627761182778866, 47.10119839527647], [-1.6276883401890945, 47.100714496173254], [-1.6276235321312627, 47.10033391333002], [-1.627358814786691, 47.09980439000981], [-1.626730620213551, 47.09939187684604], [-1.6249609391038353, 47.09927449574011], [-1.6238395676430994, 47.09928878673374], [-1.6233118568210196, 47.09925561841403], [-1.6223771229369723, 47.09926257312261], [-1.6215835143840682, 47.09916197895026], [-1.6202753768875255, 47.09918177174206], [-1.6197878683693814, 47.099171518530156], [-1.6190289850920763, 47.099044495826355], [-1.618957294142517, 47.09907217900969], [-1.618616874870646, 47.09903344456345], [-1.6183978287734393, 47.09860681709759], [-1.6182230390770356, 47.0982543314741], [-1.6170867223449228, 47.09808892490939], [-1.616538207439163, 47.09775018850796], [-1.6162264264585586, 47.09758074917318], [-1.6154327217858984, 47.097481925263025], [-1.6147238054996784, 47.097506281920914], [-1.613822381146338, 47.09748499881714], [-1.6132978494620527, 47.09745347745037], [-1.6128516445823522, 47.09751833763382], [-1.6123434595412824, 47.09771413281663], [-1.611600160237524, 47.097790995130865], [-1.6118864667933055, 47.09609407820384], [-1.613448450222813, 47.09545315615636], [-1.6143024363425977, 47.09483112914704], [-1.6151973631814658, 47.09498323585077], [-1.6151142968654615, 47.095287843019946], [-1.6168231934714778, 47.095566890435144], [-1.6176296102037309, 47.09462941382417], [-1.6186197530728128, 47.09517815053933], [-1.619330036594915, 47.09507985789538], [-1.6197343961520887, 47.09539202271919], [-1.6201359826099557, 47.095684460733864], [-1.6207909532667464, 47.095930347910546], [-1.6213596847579843, 47.09607291317573], [-1.6218027302628262, 47.096145938571986], [-1.6223402183484816, 47.09640126401236], [-1.623069194913318, 47.096716653688695], [-1.6236985537030633, 47.09699043012194], [-1.6241003602481856, 47.09717835924536], [-1.6255812779098249, 47.097260666815316], [-1.6266597871550863, 47.097257732677875], [-1.627723695183759, 47.09726790370133], [-1.6287774055372815, 47.097443260597515], [-1.6297920634304863, 47.097818115749575], [-1.6309394438136513, 47.098050568281415], [-1.6321870195886417, 47.09834801105991], [-1.6334855927223546, 47.09872835248463], [-1.6335887193169756, 47.09947962158076], [-1.6347838487507251, 47.09909157496335], [-1.634902273654649, 47.099477509432326], [-1.635202774490234, 47.09952748428552], [-1.6353949088581285, 47.099183068146154], [-1.6357309021306004, 47.09919398362249], [-1.6360674963759636, 47.09996601460708], [-1.6374482725447037, 47.09982424493622], [-1.640073536080446, 47.0995546486598], [-1.6396920997327054, 47.09824562523455], [-1.6395377206578865, 47.09771580840394], [-1.6398621472227315, 47.09753150877527], [-1.6402552751438955, 47.097308179271806], [-1.640254503491089, 47.09649752022796], [-1.6404535054793266, 47.09615735675032], [-1.6407740073047197, 47.09594360322695], [-1.6410860209489722, 47.09559953511756], [-1.6411309474929765, 47.095188134823516], [-1.6411341463937072, 47.09475295442877], [-1.64003969295043, 47.09461335110276], [-1.6390094933045087, 47.0943670309713], [-1.6379366542253266, 47.094022194327714], [-1.6366832115531926, 47.093783569336274], [-1.636149729055395, 47.093648867688316], [-1.6360948096521784, 47.092907637419124], [-1.6358468054635051, 47.092073995610036], [-1.6355354664540058, 47.090397633215936], [-1.634870431971066, 47.08799125533906], [-1.63320724523999, 47.087324593678765], [-1.6330559491832095, 47.087263946345495], [-1.6307492012977107, 47.08688416832902], [-1.6307321018662941, 47.08654607200923], [-1.6308559543911476, 47.08629859278188], [-1.632191876779381, 47.0855499024606], [-1.6316876227660098, 47.08500703464309], [-1.6317900621494512, 47.083807297548915], [-1.6324693996083435, 47.0838829314823], [-1.6332112050137622, 47.083781656808775], [-1.6336927208706693, 47.083712789847446], [-1.6342788697969297, 47.08356464101284], [-1.634719470985903, 47.08342061763129], [-1.6352310408789692, 47.0832768415965], [-1.6356216526189966, 47.082981410924255], [-1.6359324427578357, 47.08263738997459], [-1.636437304930675, 47.08236593151816], [-1.6367489367909611, 47.08253351258586], [-1.6368568774571606, 47.08247753932732], [-1.637088144235481, 47.082573134991364], [-1.6374231349880923, 47.08253453290569], [-1.6377605386155405, 47.082549895200735], [-1.6380248319552821, 47.08207867065766], [-1.6382201984616, 47.08168999257519], [-1.6387558845267776, 47.08133998987748], [-1.6397500832893546, 47.08112546055927], [-1.6402700353623372, 47.08105793288852], [-1.644349502459835, 47.08106718698002], [-1.6445579664029668, 47.08085549617606], [-1.645599946555524, 47.08076987401788], [-1.6466365440029065, 47.080633077333644], [-1.644507578102043, 47.078172958181995], [-1.6441430714041678, 47.077291119904935], [-1.6435937569978245, 47.0759301635343], [-1.6434711926570755, 47.0752948615743], [-1.6433235392687586, 47.07481536262692], [-1.643262863461208, 47.074509401322345], [-1.6433200825515608, 47.074253403794884], [-1.6433984767297614, 47.07381562226758], [-1.643562205470104, 47.07347937325764], [-1.6435971652060122, 47.07293950146338], [-1.643750330656886, 47.07250002847925], [-1.6438095538886297, 47.07215928835145], [-1.6452280404346569, 47.07146431561341], [-1.644933092984162, 47.070988117924436], [-1.6458322580745355, 47.07002917710167], [-1.6453097628710034, 47.06931315327682], [-1.6466360652008536, 47.0685871164913], [-1.64693917564234, 47.06888557981021], [-1.6473729460419175, 47.068712009137776], [-1.6477473288180156, 47.06833872659751], [-1.6482303053356033, 47.06795267171902], [-1.6487810525548168, 47.06755795112639], [-1.649447519850627, 47.06705113187241], [-1.650285390194217, 47.06747245750987], [-1.6515361208525137, 47.066701244116], [-1.6521613869178162, 47.06635527259552], [-1.652625744952795, 47.06605811312287], [-1.6533424092083808, 47.06562248790863], [-1.654055481101107, 47.06516356036072], [-1.6551346766592843, 47.064590124376544], [-1.656122528824401, 47.064273870138855], [-1.6569164535842835, 47.06388867921852], [-1.6581170878941132, 47.063923521737514], [-1.6618704584586284, 47.063587637437365], [-1.6631906782957315, 47.062238270582355], [-1.6621645713742532, 47.062017254921265], [-1.6616910855576668, 47.06167791704916], [-1.6582772898486513, 47.0590609576832], [-1.6558873417981808, 47.0576099823192], [-1.6547583750817192, 47.05649890534584], [-1.6544140391552031, 47.05589563746142], [-1.6538968485033982, 47.05548122420407], [-1.6532185135644002, 47.054916563866946], [-1.6524198061739042, 47.054229078470705], [-1.6514752671785382, 47.05359709028003], [-1.6500019250096882, 47.052907769494844], [-1.649426004301246, 47.05269534927627], [-1.6490794342646489, 47.052554240877704], [-1.6487068696786424, 47.05208074049377], [-1.648306967561933, 47.051736101405815], [-1.64790941364137, 47.05141930452999], [-1.647241504549518, 47.05098306392684], [-1.6468468719502825, 47.05068778289655], [-1.6439140899399298, 47.04844379612186], [-1.6437601124120134, 47.04827257911978], [-1.643940497714337, 47.04791142667762], [-1.644453565997295, 47.0473504861464], [-1.6455387416402831, 47.04657875518586], [-1.6483091325017714, 47.04475501966625], [-1.6489908846321282, 47.04506285349158], [-1.6499871611979917, 47.04545345941129], [-1.650483543274531, 47.045603780124466], [-1.6493518061537211, 47.0438685173009], [-1.6505836650045278, 47.043210541618], [-1.6521597995947115, 47.04211093109107]]]}}