{"type": "Feature", "properties": {"slug": "lac-du-der", "name": "Lac du Der-Chantecoq", "natura_codes": ["FR2100334"], "natura_names": ["Réservoir de la Marne dit du Der-Chantecoq"], "sea_clipped": false}, "geometry": {"type": "Polygon", "coordinates": [[[4.806267215087993, 48.525355259900614], [4.805049995183054, 48.525671170568934], [4.80482266841557, 48.52548254085372], [4.801373313794348, 48.52664723375892], [4.800636530869668, 48.52760425684369], [4.800541225007911, 48.52890408314933], [4.799812056203595, 48.52937795804001], [4.799042121851664, 48.530511940938005], [4.799016890870288, 48.53064018156287], [4.798778926253209, 48.53104986848362], [4.7984850612726495, 48.53124485570969], [4.798263740641125, 48.531485107198634], [4.798138012433966, 48.531475128221324], [4.7977284291734374, 48.53174627254565], [4.797126002774238, 48.53189371890195], [4.796787782578194, 48.53190075261016], [4.795481823496247, 48.5314871928195], [4.795163083267129, 48.531493816717564], [4.794907632044716, 48.53180312234448], [4.794979711964819, 48.531913152017026], [4.7952150005006455, 48.53207555101048], [4.796069537287718, 48.53246431519426], [4.796375897833903, 48.53273226400214], [4.796133992307657, 48.53307906519166], [4.795798264936526, 48.533874817838424], [4.795801991148319, 48.5339538885833], [4.7952702936030205, 48.5346862514945], [4.793364815070113, 48.534159214851975], [4.7930535057050525, 48.53484742278202], [4.794264189467978, 48.53510558950156], [4.794714360409664, 48.535606193050285], [4.794325784252059, 48.5382279126217], [4.793777883793947, 48.54113713732452], [4.792696747874806, 48.54251766124301], [4.792569896773508, 48.542700171858655], [4.791890005054107, 48.54282221060462], [4.790950380741662, 48.542841702567316], [4.78944668000777, 48.54179361264047], [4.788968216626199, 48.53890749082892], [4.7888962184528, 48.53737551755614], [4.78810888014057, 48.5369934011749], [4.787792034458396, 48.53751082131058], [4.786908525206803, 48.53872351644745], [4.786074797893293, 48.539194067995524], [4.783866658974846, 48.53952396833826], [4.786130727901178, 48.54038550448911], [4.787379843388593, 48.54149466978652], [4.786597692847134, 48.54304432480392], [4.7860601580490965, 48.544364063874994], [4.783452313745004, 48.543451173213], [4.782629951018141, 48.5441490082892], [4.782127336430173, 48.54438694277099], [4.781139901083342, 48.54338654134041], [4.780506522332719, 48.54266032901134], [4.780448109381358, 48.54141318540702], [4.78130794263535, 48.53969108268628], [4.779722611093282, 48.53870122204634], [4.7782993868324635, 48.537536210389895], [4.7784290550504585, 48.53480838213145], [4.776941936318423, 48.534101564068074], [4.774981944420821, 48.534579659454586], [4.774404576526454, 48.53472048717125], [4.772220282488928, 48.53556143375217], [4.771767950200659, 48.53611114987751], [4.771545009906702, 48.536382082603794], [4.773477683138207, 48.53684235501541], [4.772546342190963, 48.537614320167926], [4.773326301741468, 48.53880073935201], [4.775627801669057, 48.54149914769153], [4.776852546761115, 48.54287064491244], [4.77706593526867, 48.54591245888374], [4.774343502765222, 48.549885374646344], [4.772400142276816, 48.550042308802105], [4.769856461040207, 48.55088608349131], [4.768836503985123, 48.551022171144126], [4.7667546304664, 48.55407514590736], [4.765509255563866, 48.554896655269346], [4.761516530688528, 48.55548936136441], [4.760262989201713, 48.55613740307135], [4.75817529010838, 48.55720361751033], [4.754172716104266, 48.55762718838346], [4.750714754724288, 48.556845167408305], [4.750294666564835, 48.55702461484935], [4.74751762367864, 48.55617285026804], [4.746618659810916, 48.55522433829791], [4.746504739059838, 48.555110543778895], [4.7450039506641035, 48.55361136381495], [4.742541126786236, 48.554000510253374], [4.74157036956095, 48.55436443123727], [4.740775658775174, 48.55466234552659], [4.738479345720059, 48.55493560431886], [4.736259608652987, 48.55503638532844], [4.732191949011605, 48.55404224810442], [4.730640111154916, 48.5537885483438], [4.728162454295041, 48.553838636468136], [4.7204318197595665, 48.55501715552223], [4.719420261054081, 48.55537657943567], [4.718261313963323, 48.55619673164113], [4.717110872121683, 48.55724244646451], [4.715251873319895, 48.55773399112159], [4.711516320839041, 48.558375588818045], [4.706034579989798, 48.56013305075388], [4.704299451679172, 48.561474522738315], [4.702868474957436, 48.563886401741186], [4.702381002371875, 48.56633966397689], [4.702297691714094, 48.5682731145283], [4.701744865793329, 48.5693049173885], [4.700773351288258, 48.57051774589492], [4.700410327708923, 48.57194415401184], [4.7001815887898015, 48.57444707823255], [4.700406515258842, 48.57563600869142], [4.701323061851654, 48.57698020461728], [4.701696669381691, 48.577654441838405], [4.70165323943095, 48.57862120014854], [4.701715028251138, 48.57998335495661], [4.702437786677599, 48.582693901697745], [4.702655184366265, 48.583712099500566], [4.702264680424056, 48.584515809941635], [4.701208157445355, 48.58578518099717], [4.698263341603452, 48.5887973362011], [4.696139731458317, 48.59105470808901], [4.695696947363197, 48.59259687813145], [4.696564065954116, 48.59473798118207], [4.6997793456634565, 48.597682110754256], [4.702269754108763, 48.5997341225838], [4.704021391657679, 48.60060744618209], [4.707250718323099, 48.601962002885124], [4.706402546998159, 48.60286430588485], [4.703821484167634, 48.60560986246695], [4.702979237231951, 48.60591446979656], [4.701741127903407, 48.60584206091697], [4.700887362769175, 48.60624580617336], [4.699620796609078, 48.60713711762078], [4.698148397671281, 48.608275330512186], [4.697507909653461, 48.608577676574576], [4.696707903299096, 48.60854415195305], [4.696192219122056, 48.60999782080107], [4.696187080758627, 48.611492582318306], [4.697181946071149, 48.61234779172364], [4.698426827798644, 48.61284458368005], [4.699816307744128, 48.61305700007439], [4.699794423885503, 48.61257450464431], [4.701120069546909, 48.61298242474186], [4.701774041277094, 48.61629862450893], [4.702153317176582, 48.61790981511543], [4.701062966339249, 48.62031653810452], [4.699007664986635, 48.62410583235584], [4.697284954088153, 48.62766092883485], [4.697745298450467, 48.62838918513193], [4.700214044920999, 48.62425264677116], [4.70282172573172, 48.61937583696992], [4.703528006360924, 48.61803524801421], [4.703237648403232, 48.61498159661276], [4.702172084779509, 48.611843584449346], [4.702303452610012, 48.609754554161256], [4.703281330780557, 48.607976866627425], [4.704725888232746, 48.60611519226821], [4.706894505770224, 48.60423092357315], [4.70768962528948, 48.60345214432274], [4.708518884382761, 48.60263989461909], [4.709467931124228, 48.60323242908856], [4.71314533565673, 48.60295457088077], [4.715672759183337, 48.603275272784764], [4.717197634106779, 48.6040423377387], [4.719798295481847, 48.606926350172024], [4.722652305123255, 48.60898681510191], [4.725207435388171, 48.610862588836056], [4.72771391918547, 48.61167718595182], [4.728784438814613, 48.61127066946594], [4.730989728276967, 48.611853854044455], [4.7325096085674145, 48.61172600750341], [4.733278475720794, 48.61108363039571], [4.735694671645522, 48.61151587748968], [4.737137463908214, 48.61129599777476], [4.73834164836004, 48.61064566826182], [4.7418605218044725, 48.608214452193586], [4.743106352152869, 48.606888724766264], [4.744285825747871, 48.605707325393674], [4.746053793770355, 48.604661434223225], [4.747826629763344, 48.60376020821394], [4.74889675503206, 48.60335170987848], [4.7495504186401405, 48.603338399510676], [4.750057628110796, 48.60332806878095], [4.7502270027626965, 48.60385522437274], [4.750426117938669, 48.60500681225407], [4.751780735166297, 48.606037724022606], [4.7539219999017215, 48.60681245221395], [4.75488104938387, 48.60713103345653], [4.755568207575625, 48.60783827537247], [4.755908318725359, 48.6082287638973], [4.756105402810494, 48.60845503914573], [4.757546093913709, 48.60823135895121], [4.758436985520315, 48.6080058305117], [4.761062806909855, 48.60734105757576], [4.762642032602918, 48.60692471196113], [4.763971177202385, 48.60583627300163], [4.7655711818262745, 48.60436004186896], [4.7662775459988085, 48.60391207632914], [4.767143309031974, 48.6037971914368], [4.767948504953738, 48.60392456263951], [4.768537621913709, 48.6041058317972], [4.769052367351281, 48.60423915605124], [4.769491188079374, 48.60432637722992], [4.770448735578374, 48.604597197159606], [4.77162374724136, 48.60491031205176], [4.773317390453862, 48.605404304584724], [4.774728153285046, 48.60450921135919], [4.776659547315583, 48.603891171553755], [4.778951132537374, 48.60321711027825], [4.781335170571607, 48.602927815087014], [4.7837220562652725, 48.60273464378787], [4.785959553025495, 48.60244738516495], [4.787758668333805, 48.60212058313755], [4.789121170074692, 48.60175422921566], [4.790913556103212, 48.60128542262933], [4.792344403467533, 48.60082228434136], [4.792712734293586, 48.599701247944985], [4.792895007854642, 48.598677604941294], [4.792676066860329, 48.59730612936071], [4.79256395531624, 48.596543998946615], [4.792817070020567, 48.59558543412612], [4.797110678413819, 48.59531375727695], [4.79862183696118, 48.597040604179035], [4.80214606526301, 48.5982533952662], [4.804924045092011, 48.59657220952499], [4.803842984631326, 48.59530864070091], [4.804952829808671, 48.595015714669195], [4.805525548921425, 48.59419165692873], [4.8062568835639095, 48.59458382541162], [4.80724798224047, 48.59395159438453], [4.8076240035436735, 48.593269227397215], [4.808215966366449, 48.592849465868134], [4.80884652800034, 48.593243721309555], [4.8107640718058295, 48.59279627628594], [4.811505700243154, 48.59339055358805], [4.812097542691684, 48.59297167716098], [4.811766251201421, 48.59243628231269], [4.8152990108035185, 48.591618638104826], [4.815923025515631, 48.59187718661291], [4.818008242563818, 48.59068233749776], [4.816962521826413, 48.59016281514507], [4.817450405840378, 48.58967773134937], [4.818709031791698, 48.59039784100649], [4.81927871100554, 48.59091129324404], [4.819881220049739, 48.59145432147365], [4.8206634173036145, 48.59076159399543], [4.820681235387275, 48.590032436539055], [4.8206981596472245, 48.5893398589122], [4.821163594762225, 48.589730168408174], [4.822824326397666, 48.5911227733882], [4.828929472901256, 48.588694786978394], [4.830976083951817, 48.5909514052827], [4.832173319934927, 48.590384767867995], [4.833119261200495, 48.59097461189095], [4.833402084987896, 48.59049378069862], [4.83198434404356, 48.58856121550755], [4.835701715521392, 48.58740089684021], [4.836349346942329, 48.5881310180423], [4.837036983936105, 48.587575077511175], [4.836356907163736, 48.586168410967964], [4.837688913795688, 48.58627519978603], [4.838338975159474, 48.58707541349314], [4.839436894303086, 48.58657824324835], [4.838457728846769, 48.58531281468569], [4.839258155612676, 48.58495594422197], [4.84034375975208, 48.5863540175259], [4.841856107668864, 48.58598477360544], [4.842152041469539, 48.58577615399201], [4.841833352444422, 48.58551128426898], [4.842633038998521, 48.5851561991186], [4.8427215616815955, 48.58488271316991], [4.843724403135514, 48.584524217964955], [4.844916551959194, 48.585987456559984], [4.846320942141768, 48.58548553478759], [4.845864044615217, 48.584478908870466], [4.844947386631331, 48.58449832417244], [4.844523203052478, 48.584168241631424], [4.8462362965875, 48.58372723525181], [4.846657146518324, 48.58398813162895], [4.849267238407255, 48.58312064522645], [4.849051126207768, 48.5828554091853], [4.849852251862984, 48.58256859791742], [4.850273251812491, 48.58282947769319], [4.850871247720706, 48.58254697058885], [4.854625367480167, 48.58212814867993], [4.857204878920205, 48.5806522427007], [4.857835170161204, 48.57884372537184], [4.858659983492149, 48.576476864443876], [4.861377627076769, 48.573416769956935], [4.860597012654446, 48.57268961437845], [4.85912190439777, 48.569564510329435], [4.859001960442721, 48.569310386120904], [4.856861003829434, 48.56719292540535], [4.855969488792009, 48.566884251544174], [4.854798003914827, 48.566478627081615], [4.852731196940056, 48.56520944234288], [4.850002741232637, 48.56330041019562], [4.849921110424462, 48.56324453032096], [4.848148637350867, 48.56203113737502], [4.843929734653267, 48.56333924279305], [4.839993754557814, 48.557805800662905], [4.8315162454237335, 48.55597967264468], [4.828251412846703, 48.55527620402118], [4.821127009973966, 48.55339601572978], [4.819059362176078, 48.55263790635307], [4.817342937687985, 48.55200852869209], [4.816713548355539, 48.55177773472382], [4.815356068197094, 48.55127993486449], [4.813969399978425, 48.550771405680976], [4.814018639334095, 48.55050181478673], [4.814130668233185, 48.5498884246354], [4.812313616263595, 48.54810067672983], [4.810208731500557, 48.546721843562715], [4.809820037663632, 48.54497164997828], [4.809925404656582, 48.542871156387214], [4.81069741950669, 48.5419763066705], [4.809495275128873, 48.5402431104451], [4.807756695490899, 48.53797696182572], [4.807738420164782, 48.53796147453449], [4.805131352005081, 48.536340888717255], [4.804957215383902, 48.534786760546886], [4.805519709872092, 48.53376050359514], [4.806514504217711, 48.53326485713069], [4.805957626895004, 48.53226285341923], [4.804348163011144, 48.53270116247563], [4.802194698255873, 48.532408781970496], [4.80135231926785, 48.531705011236106], [4.801864344606745, 48.531275227030164], [4.802445966922297, 48.53099148305459], [4.802954665799707, 48.530706562004106], [4.803325373568013, 48.530132210603234], [4.803262991859707, 48.52960016395028], [4.803049591674092, 48.5294544123172], [4.803126694074933, 48.529117329570255], [4.803489086138641, 48.528977564230125], [4.8043669458854215, 48.528212747898756], [4.804592805704045, 48.52763691839903], [4.805317193674442, 48.52740414880699], [4.806290018821479, 48.52737664505975], [4.807367385409699, 48.52716347757252], [4.806267215087993, 48.525355259900614]]]}}